{
  "type": "FeatureCollection",
  "name": "QuyHoach_HaTang_Mau",
  "features": [
    {
      "type": "Feature",
      "properties": { "name": "Công viên cây xanh quy hoạch (mẫu)", "loai": "1-CV", "dienTich": 42000, "giaiDoan": "2026-2030" },
      "geometry": {
        "type": "Polygon",
        "coordinates": [[[107.5985, 16.4575], [107.6035, 16.4575], [107.6035, 16.4610], [107.5985, 16.4610], [107.5985, 16.4575]]]
      }
    },
    {
      "type": "Feature",
      "properties": { "name": "Khu trung tâm dịch vụ công cộng (mẫu)", "loai": "8-TM", "dienTich": 65000, "giaiDoan": "2026-2030" },
      "geometry": {
        "type": "Polygon",
        "coordinates": [[[107.5760, 16.4700], [107.5830, 16.4700], [107.5830, 16.4745], [107.5760, 16.4745], [107.5760, 16.4700]]]
      }
    },
    {
      "type": "Feature",
      "properties": { "name": "Trường THCS quy hoạch (mẫu)", "loai": "5-THCS", "dienTich": 12000, "giaiDoan": "2026-2030" },
      "geometry": { "type": "Point", "coordinates": [107.5905, 16.4520] }
    },
    {
      "type": "Feature",
      "properties": { "name": "Trạm y tế quy hoạch (mẫu)", "loai": "6-YT", "dienTich": 3000, "giaiDoan": "2031-2035" },
      "geometry": { "type": "Point", "coordinates": [107.6120, 16.4680] }
    },
    {
      "type": "Feature",
      "properties": { "name": "Bãi đỗ xe tập trung quy hoạch (mẫu)", "loai": "2-BDX", "dienTich": 8000, "giaiDoan": "2031-2035" },
      "geometry": { "type": "Point", "coordinates": [107.5720, 16.4610] }
    }
  ]
}
