{"type":"FeatureCollection","ref":"Quyết định 614/QĐ-UBND ngày 10/02/2026","source":"Ranh 40 phường xã webapp; ranh trước sáp nhập © OpenStreetMap contributors (ODbL), ngày 2025-06-01","features":[{"type":"Feature","properties":{"id":"hue","anchor":[107.57999,16.46883],"km2":4956.11},"geometry":{"type":"Polygon","coordinates":[[[107.03449,16.35856],[107.03463,16.35721],[107.03706,16.35677],[107.03817,16.35716],[107.03945,16.35662],[107.04031,16.35328],[107.04134,16.3528],[107.04088,16.35027],[107.04132,16.34934],[107.04415,16.34898],[107.0463,16.34942],[107.04735,16.34897],[107.05136,16.34959],[107.05329,16.34613],[107.05647,16.34782],[107.06007,16.34734],[107.06092,16.34814],[107.06183,16.34793],[107.06157,16.34574],[107.06014,16.34528],[107.06213,16.34431],[107.0617,16.34244],[107.06309,16.34105],[107.06267,16.33893],[107.06382,16.33685],[107.0628,16.33555],[107.06299,16.3323],[107.06517,16.33148],[107.06549,16.33034],[107.06743,16.32877],[107.06839,16.32873],[107.07038,16.32654],[107.0747,16.32514],[107.07782,16.32216],[107.07972,16.32204],[107.08097,16.32123],[107.082,16.31969],[107.08219,16.31765],[107.08266,16.31721],[107.08256,16.31508],[107.08129,16.31246],[107.08815,16.31142],[107.08984,16.30884],[107.09189,16.30835],[107.12153,16.28697],[107.12683,16.2838],[107.14738,16.26972],[107.14741,16.26922],[107.14636,16.26824],[107.14886,16.26433],[107.1502,16.26329],[107.15181,16.26309],[107.15246,16.26231],[107.15345,16.25914],[107.15686,16.25661],[107.15567,16.25393],[107.15433,16.25391],[107.15363,16.25262],[107.1549,16.24734],[107.15379,16.24502],[107.15319,16.24155],[107.15223,16.24037],[107.15012,16.23958],[107.14908,16.23759],[107.14943,16.23573],[107.15445,16.23365],[107.15528,16.23246],[107.15522,16.23128],[107.15453,16.22996],[107.15284,16.22855],[107.1517,16.22568],[107.14694,16.22131],[107.1445,16.21385],[107.14517,16.21147],[107.14724,16.21139],[107.14819,16.20923],[107.14716,16.2023],[107.1497,16.19982],[107.15009,16.19696],[107.14996,16.19438],[107.14861,16.19357],[107.14901,16.18856],[107.15518,16.18375],[107.15611,16.18166],[107.15592,16.17963],[107.157,16.17715],[107.15786,16.17626],[107.15722,16.17175],[107.15928,16.17002],[107.16026,16.16776],[107.16259,16.16802],[107.16376,16.16692],[107.16721,16.16584],[107.16961,16.1664],[107.17049,16.16597],[107.17255,16.1644],[107.17618,16.15758],[107.17785,16.15731],[107.17854,16.15624],[107.18017,16.15554],[107.18355,16.15199],[107.18472,16.15172],[107.18567,16.15246],[107.18694,16.15202],[107.18817,16.14932],[107.19233,16.14752],[107.19427,16.14457],[107.19594,16.14551],[107.19705,16.14421],[107.19942,16.14402],[107.20275,16.14508],[107.20577,16.14535],[107.20709,16.14605],[107.20818,16.14524],[107.20916,16.14517],[107.21431,16.1412],[107.21698,16.14151],[107.21833,16.14099],[107.21922,16.14153],[107.2203,16.1414],[107.22129,16.14002],[107.22354,16.13905],[107.22387,16.13782],[107.22449,16.13744],[107.22553,16.14158],[107.23105,16.14371],[107.23449,16.1456],[107.23759,16.14623],[107.2402,16.1474],[107.24183,16.14683],[107.24377,16.14761],[107.24555,16.14681],[107.24679,16.14559],[107.24712,16.14295],[107.24993,16.13936],[107.2521,16.13866],[107.25473,16.13568],[107.25615,16.13521],[107.25746,16.13686],[107.2603,16.13653],[107.26347,16.13684],[107.26417,16.13309],[107.26575,16.12859],[107.26529,16.12679],[107.26753,16.12393],[107.26808,16.12031],[107.26991,16.11952],[107.27078,16.11841],[107.27096,16.11732],[107.27168,16.11712],[107.27235,16.11603],[107.27513,16.11694],[107.27806,16.11609],[107.28025,16.1173],[107.28268,16.11776],[107.28336,16.11869],[107.28421,16.11885],[107.28558,16.11525],[107.2865,16.11396],[107.2873,16.1137],[107.28752,16.1127],[107.28975,16.11223],[107.29056,16.11035],[107.29205,16.10961],[107.29135,16.10741],[107.2937,16.10522],[107.29479,16.10149],[107.2946,16.10029],[107.29853,16.09629],[107.29987,16.09581],[107.30253,16.09336],[107.30284,16.09261],[107.30243,16.09104],[107.308,16.08127],[107.31097,16.07878],[107.31237,16.07908],[107.31377,16.07867],[107.31408,16.07815],[107.31336,16.07732],[107.31359,16.07641],[107.31488,16.07412],[107.31831,16.07063],[107.31974,16.07004],[107.32475,16.07016],[107.32534,16.0691],[107.32848,16.0678],[107.32893,16.06655],[107.32971,16.06644],[107.32946,16.06502],[107.32996,16.06055],[107.33087,16.05898],[107.33437,16.05679],[107.33444,16.05597],[107.33377,16.0551],[107.33829,16.05522],[107.33948,16.05572],[107.34052,16.05676],[107.34343,16.05809],[107.34462,16.06074],[107.34651,16.06207],[107.34818,16.06251],[107.34994,16.06171],[107.35202,16.06179],[107.35908,16.06378],[107.35998,16.06262],[107.36264,16.06142],[107.36577,16.06114],[107.36999,16.06362],[107.37073,16.06541],[107.37238,16.06725],[107.37409,16.07134],[107.37799,16.07418],[107.37989,16.07378],[107.37973,16.07277],[107.38026,16.07171],[107.38199,16.0698],[107.385,16.06831],[107.38501,16.06748],[107.38564,16.0672],[107.38889,16.06258],[107.39052,16.06238],[107.39278,16.06408],[107.39499,16.06306],[107.39892,16.06228],[107.40042,16.06328],[107.40118,16.06443],[107.40038,16.06507],[107.40107,16.06732],[107.40075,16.06872],[107.40295,16.07078],[107.40328,16.07183],[107.40395,16.07467],[107.4032,16.07559],[107.40327,16.0774],[107.40467,16.0789],[107.40498,16.08011],[107.409,16.08416],[107.41131,16.08341],[107.41183,16.08441],[107.4125,16.08458],[107.41338,16.08355],[107.41827,16.08153],[107.4186,16.08014],[107.42011,16.07881],[107.4217,16.07827],[107.42281,16.07913],[107.42436,16.07949],[107.42514,16.07869],[107.42633,16.07854],[107.42708,16.07793],[107.43226,16.07959],[107.43516,16.08352],[107.43707,16.08244],[107.43999,16.082],[107.44348,16.08306],[107.44608,16.08638],[107.44604,16.0877],[107.44666,16.08913],[107.44635,16.09102],[107.44933,16.09168],[107.44925,16.09006],[107.45085,16.08908],[107.45136,16.08821],[107.45245,16.08892],[107.45516,16.08758],[107.45432,16.08485],[107.45679,16.08325],[107.45759,16.08179],[107.4581,16.07924],[107.45926,16.07778],[107.45894,16.07698],[107.45989,16.07636],[107.45987,16.07497],[107.46132,16.07306],[107.46059,16.07147],[107.45924,16.07004],[107.45438,16.06725],[107.45221,16.06293],[107.45086,16.06276],[107.44988,16.06322],[107.44892,16.06052],[107.44976,16.05855],[107.44812,16.05584],[107.44616,16.05408],[107.446,16.05217],[107.44673,16.05058],[107.44765,16.04357],[107.44685,16.04089],[107.4471,16.03878],[107.44779,16.03793],[107.45389,16.0369],[107.45519,16.03601],[107.45763,16.0328],[107.45831,16.0292],[107.46006,16.02819],[107.46324,16.02854],[107.4644,16.02784],[107.46587,16.02592],[107.46781,16.02534],[107.46967,16.02676],[107.47337,16.03302],[107.47538,16.0336],[107.47678,16.035],[107.47841,16.03571],[107.47933,16.03582],[107.48157,16.03464],[107.48429,16.03548],[107.4845,16.0365],[107.48535,16.0372],[107.48533,16.03869],[107.4865,16.03954],[107.48658,16.04086],[107.48865,16.0411],[107.49395,16.03925],[107.49616,16.03915],[107.49694,16.03806],[107.49805,16.03452],[107.49977,16.03473],[107.50118,16.03429],[107.50139,16.03355],[107.50296,16.03223],[107.50323,16.03072],[107.50514,16.02957],[107.50437,16.02802],[107.5054,16.02707],[107.50633,16.02197],[107.50707,16.02166],[107.50921,16.01866],[107.51203,16.01652],[107.51735,16.01478],[107.51963,16.01491],[107.52254,16.01653],[107.52519,16.0165],[107.5299,16.01517],[107.532,16.01524],[107.53433,16.01332],[107.53791,16.01301],[107.53875,16.01198],[107.54439,16.01066],[107.54977,16.01134],[107.55069,16.01497],[107.55159,16.01528],[107.55399,16.0146],[107.55585,16.01735],[107.55754,16.01755],[107.55911,16.02102],[107.56044,16.0219],[107.55839,16.02537],[107.55951,16.02714],[107.56022,16.02944],[107.56021,16.03143],[107.55849,16.03171],[107.55729,16.0328],[107.55588,16.0374],[107.55416,16.03898],[107.55349,16.04076],[107.55225,16.04179],[107.55294,16.0444],[107.55725,16.0451],[107.55786,16.04757],[107.55868,16.04771],[107.56105,16.05027],[107.56539,16.052],[107.56662,16.05195],[107.57185,16.05568],[107.57461,16.05432],[107.57885,16.05477],[107.58669,16.05679],[107.59261,16.05718],[107.59575,16.05623],[107.59686,16.05712],[107.6011,16.05741],[107.6038,16.05908],[107.60478,16.05886],[107.60609,16.06002],[107.61129,16.06077],[107.61554,16.06301],[107.61973,16.06405],[107.62138,16.06208],[107.62486,16.05564],[107.62556,16.0528],[107.62517,16.05201],[107.62537,16.05033],[107.62611,16.04928],[107.62535,16.0474],[107.62539,16.04611],[107.62283,16.04403],[107.62237,16.04173],[107.62002,16.03863],[107.62017,16.03416],[107.62129,16.03206],[107.62281,16.0311],[107.6241,16.03224],[107.62728,16.03157],[107.62973,16.0305],[107.63231,16.03101],[107.63526,16.02951],[107.63552,16.02864],[107.64096,16.02711],[107.64102,16.0263],[107.64474,16.02397],[107.64758,16.02345],[107.65071,16.01921],[107.65795,16.01956],[107.66409,16.01866],[107.66492,16.01675],[107.66796,16.01467],[107.66861,16.01343],[107.67241,16.01159],[107.67208,16.00934],[107.67285,16.00646],[107.67581,16.00518],[107.6765,16.00429],[107.67637,16.00016],[107.67703,15.9991],[107.68144,15.99805],[107.68233,15.99728],[107.68497,15.9974],[107.68697,15.99673],[107.69108,15.99657],[107.69208,15.99553],[107.69595,15.99473],[107.69958,15.99518],[107.70135,15.99487],[107.70324,15.99546],[107.70506,15.99468],[107.70747,15.99532],[107.70777,15.99689],[107.70936,15.99873],[107.71457,16.0007],[107.71783,16.00271],[107.72214,16.0067],[107.72404,16.0076],[107.7273,16.01328],[107.72649,16.01544],[107.72819,16.01871],[107.72785,16.02088],[107.72816,16.02222],[107.72766,16.02419],[107.72586,16.02614],[107.72563,16.02748],[107.72666,16.03055],[107.72997,16.03162],[107.73125,16.03385],[107.73406,16.03621],[107.7357,16.03648],[107.73898,16.03858],[107.73875,16.0393],[107.74114,16.0389],[107.74329,16.04043],[107.7438,16.04154],[107.74776,16.04267],[107.75085,16.04302],[107.75294,16.04271],[107.75448,16.04401],[107.75635,16.04324],[107.75729,16.04341],[107.75961,16.04741],[107.76147,16.0495],[107.76421,16.05005],[107.76706,16.05148],[107.76978,16.05134],[107.77066,16.05561],[107.77427,16.05852],[107.77517,16.06007],[107.77553,16.0633],[107.7739,16.06691],[107.77593,16.06547],[107.77692,16.06552],[107.77815,16.06481],[107.77905,16.06326],[107.78155,16.06237],[107.78358,16.06543],[107.78708,16.06792],[107.78826,16.06813],[107.79068,16.06566],[107.79312,16.06413],[107.79355,16.06282],[107.7964,16.06242],[107.79717,16.06169],[107.79814,16.06182],[107.80135,16.0606],[107.80263,16.05812],[107.80465,16.05682],[107.80583,16.05516],[107.8085,16.05317],[107.81284,16.05275],[107.81565,16.05325],[107.81717,16.05598],[107.81876,16.05739],[107.81865,16.0594],[107.8202,16.06226],[107.82014,16.06511],[107.82478,16.07011],[107.82438,16.07305],[107.82165,16.07782],[107.82245,16.08302],[107.8256,16.08495],[107.82551,16.08688],[107.82688,16.09004],[107.82904,16.09186],[107.83229,16.09297],[107.83203,16.09392],[107.83258,16.09628],[107.8371,16.10114],[107.84129,16.10339],[107.84548,16.10465],[107.84574,16.10573],[107.84847,16.10779],[107.84962,16.10972],[107.85102,16.1109],[107.85367,16.11204],[107.85618,16.11443],[107.85595,16.12033],[107.85447,16.12218],[107.85432,16.12311],[107.85494,16.12528],[107.85581,16.12632],[107.85599,16.12777],[107.85739,16.12878],[107.85858,16.13262],[107.85933,16.13317],[107.85925,16.134],[107.8602,16.13518],[107.85929,16.13674],[107.8579,16.13775],[107.8576,16.13867],[107.85769,16.14035],[107.85872,16.14307],[107.85831,16.14387],[107.85997,16.14537],[107.86047,16.1473],[107.85935,16.14969],[107.85873,16.15312],[107.86011,16.15473],[107.86349,16.15546],[107.86599,16.15741],[107.87348,16.15792],[107.87498,16.16069],[107.87615,16.16572],[107.87624,16.16996],[107.87399,16.17369],[107.87233,16.17781],[107.86917,16.18096],[107.86803,16.18129],[107.86743,16.18294],[107.87735,16.18904],[107.876,16.19377],[107.8747,16.1951],[107.87542,16.19678],[107.87763,16.19722],[107.87863,16.19835],[107.88292,16.19991],[107.88674,16.19971],[107.88813,16.20035],[107.88846,16.20236],[107.88985,16.20362],[107.88997,16.20625],[107.8955,16.20524],[107.90021,16.20891],[107.90378,16.2105],[107.90477,16.21367],[107.90607,16.2145],[107.90852,16.21412],[107.91011,16.21551],[107.91121,16.21555],[107.91361,16.21446],[107.91789,16.20838],[107.92113,16.20644],[107.92144,16.2055],[107.92322,16.20404],[107.92451,16.20211],[107.92676,16.20149],[107.92792,16.20066],[107.9297,16.19757],[107.93208,16.19725],[107.93452,16.19537],[107.93622,16.19506],[107.93782,16.19548],[107.93861,16.19469],[107.93949,16.19461],[107.94377,16.19467],[107.94631,16.1934],[107.94991,16.19067],[107.95609,16.18917],[107.95686,16.19001],[107.95813,16.19017],[107.96164,16.19201],[107.96348,16.19198],[107.96515,16.19311],[107.96777,16.19321],[107.96967,16.19416],[107.97001,16.19604],[107.97106,16.19683],[107.97208,16.19909],[107.97377,16.1993],[107.97924,16.20327],[107.97925,16.20576],[107.98081,16.20816],[107.98202,16.20837],[107.98271,16.20981],[107.98827,16.21422],[107.99383,16.2096],[107.9952,16.20988],[108.00367,16.20503],[108.00571,16.20524],[108.0105,16.19817],[108.01518,16.19405],[108.01779,16.19462],[108.02478,16.19301],[108.02572,16.19345],[108.0271,16.19301],[108.02824,16.19331],[108.03311,16.1908],[108.03438,16.19137],[108.03671,16.19152],[108.03846,16.1901],[108.03967,16.19008],[108.04287,16.18774],[108.04539,16.18681],[108.04982,16.18392],[108.05247,16.18302],[108.0562,16.18017],[108.05935,16.17916],[108.06156,16.18049],[108.06424,16.18418],[108.07068,16.18214],[108.07368,16.18226],[108.07546,16.18355],[108.07944,16.18264],[108.08055,16.18321],[108.08437,16.18158],[108.0852,16.18244],[108.08625,16.18262],[108.0876,16.18179],[108.08941,16.18169],[108.09161,16.1803],[108.09281,16.1803],[108.09366,16.18082],[108.09372,16.18256],[108.09454,16.18339],[108.10051,16.18713],[108.10335,16.18577],[108.10496,16.1863],[108.10779,16.18506],[108.11098,16.18214],[108.11243,16.18256],[108.11392,16.18221],[108.11574,16.18288],[108.11854,16.18135],[108.12027,16.18155],[108.12495,16.18313],[108.13186,16.18811],[108.13246,16.18896],[108.1357,16.1908],[108.13719,16.19292],[108.13956,16.19391],[108.1412,16.19531],[108.14366,16.19908],[108.14582,16.19978],[108.14742,16.19965],[108.15074,16.20139],[108.15571,16.20032],[108.15604,16.20394],[108.15734,16.2058],[108.16074,16.20634],[108.16517,16.20391],[108.1689,16.20323],[108.17076,16.20133],[108.17162,16.20176],[108.17232,16.20324],[108.17432,16.20361],[108.17555,16.20526],[108.17697,16.20589],[108.18575,16.2076],[108.18932,16.20774],[108.19462,16.21005],[108.19412,16.21074],[108.18972,16.21166],[108.18657,16.2141],[108.18261,16.21559],[108.18178,16.21525],[108.18207,16.21338],[108.18141,16.21258],[108.17804,16.21194],[108.17754,16.2122],[108.17638,16.21169],[108.17492,16.21227],[108.17438,16.21144],[108.17363,16.21153],[108.17368,16.21086],[108.17109,16.20886],[108.1688,16.20899],[108.16798,16.20984],[108.16693,16.20979],[108.16523,16.21116],[108.16423,16.21123],[108.16369,16.21192],[108.16173,16.2127],[108.15937,16.2157],[108.15549,16.21552],[108.15415,16.21669],[108.15349,16.21826],[108.14836,16.22122],[108.14703,16.22109],[108.14506,16.21961],[108.1443,16.21869],[108.14381,16.21539],[108.14293,16.21393],[108.14191,16.21355],[108.13981,16.21314],[108.13813,16.21486],[108.13594,16.21449],[108.13437,16.21729],[108.13471,16.21761],[108.13407,16.21796],[108.13344,16.21714],[108.13274,16.21737],[108.1326,16.21677],[108.13127,16.21677],[108.13063,16.21589],[108.12783,16.21664],[108.12655,16.21567],[108.12443,16.21673],[108.12242,16.21421],[108.11886,16.21251],[108.11761,16.21314],[108.11613,16.21493],[108.11437,16.21532],[108.11293,16.21766],[108.11114,16.218],[108.10998,16.21932],[108.10893,16.21951],[108.10797,16.2189],[108.10666,16.21892],[108.10483,16.2203],[108.10384,16.22015],[108.10262,16.22144],[108.10232,16.22283],[108.10123,16.22255],[108.09745,16.22525],[108.09611,16.22548],[108.09314,16.22882],[108.09227,16.22837],[108.09265,16.22515],[108.09106,16.22545],[108.09179,16.22579],[108.09174,16.2262],[108.08984,16.22827],[108.08543,16.23594],[108.07293,16.25354],[108.0586,16.27496],[108.04043,16.30368],[108.03782,16.30893],[108.03735,16.31188],[108.03751,16.31236],[108.04125,16.31411],[108.04163,16.31524],[108.04025,16.31625],[108.03973,16.32009],[108.03862,16.32139],[108.03848,16.32282],[108.03732,16.32398],[108.03682,16.3253],[108.03694,16.32684],[108.03399,16.33012],[108.03328,16.33221],[108.0344,16.3349],[108.03405,16.33547],[108.03228,16.33515],[108.02942,16.3358],[108.02874,16.33535],[108.02447,16.34018],[108.02323,16.34314],[108.02059,16.34394],[108.019,16.34296],[108.01776,16.34146],[108.01633,16.33803],[108.017,16.33508],[108.01831,16.33376],[108.01831,16.33191],[108.01989,16.33189],[108.02173,16.33053],[108.02171,16.32989],[108.01985,16.32991],[108.02173,16.32947],[108.02168,16.31846],[108.02109,16.31802],[108.02035,16.3192],[108.01475,16.31595],[108.00885,16.31384],[108.00346,16.31313],[107.99791,16.31368],[107.98626,16.31576],[107.97743,16.31815],[107.97657,16.31774],[107.97558,16.31852],[107.97523,16.31968],[107.97349,16.31923],[107.97463,16.31977],[107.97064,16.3222],[107.96506,16.32653],[107.95573,16.33764],[107.9546,16.33923],[107.95441,16.34084],[107.95542,16.34384],[107.95498,16.34444],[107.95384,16.3444],[107.9531,16.34335],[107.95214,16.34343],[107.946,16.3477],[107.94574,16.34714],[107.94458,16.34693],[107.94521,16.34504],[107.94489,16.34455],[107.94399,16.34425],[107.94358,16.34486],[107.94332,16.34373],[107.94225,16.34335],[107.94001,16.34374],[107.93956,16.34445],[107.93788,16.34504],[107.92468,16.35452],[107.92076,16.35557],[107.92007,16.35663],[107.91836,16.35784],[107.91449,16.35988],[107.91363,16.36106],[107.90807,16.36519],[107.90519,16.368],[107.90407,16.36804],[107.90297,16.36651],[107.90218,16.36648],[107.89695,16.36965],[107.88331,16.38028],[107.86655,16.39471],[107.86607,16.39506],[107.8648,16.39481],[107.86543,16.39516],[107.86515,16.39589],[107.85944,16.40089],[107.85832,16.40052],[107.85892,16.4014],[107.85814,16.4022],[107.84147,16.4167],[107.80302,16.45204],[107.78213,16.46968],[107.78074,16.46906],[107.78133,16.47038],[107.77107,16.47867],[107.74238,16.50041],[107.73173,16.5079],[107.71217,16.52353],[107.70242,16.52999],[107.69175,16.53787],[107.66354,16.55525],[107.66011,16.55641],[107.65132,16.56129],[107.6462,16.56333],[107.63907,16.56707],[107.62736,16.57192],[107.62534,16.5713],[107.6239,16.56951],[107.62229,16.56871],[107.61876,16.56983],[107.61663,16.57203],[107.61552,16.57541],[107.61345,16.57905],[107.61136,16.58133],[107.59488,16.58874],[107.58815,16.59252],[107.5812,16.59694],[107.57508,16.60167],[107.57415,16.60182],[107.57092,16.60441],[107.56534,16.60756],[107.56291,16.60973],[107.55632,16.61383],[107.54151,16.62478],[107.54037,16.62514],[107.5331,16.63103],[107.52952,16.63308],[107.52319,16.63819],[107.52104,16.63934],[107.51879,16.64147],[107.49839,16.65667],[107.48256,16.6699],[107.47535,16.67534],[107.47144,16.679],[107.47042,16.67933],[107.45711,16.69016],[107.44417,16.69946],[107.43933,16.70372],[107.43775,16.70445],[107.41115,16.72655],[107.39548,16.73795],[107.39109,16.74164],[107.38907,16.74261],[107.38641,16.74062],[107.38488,16.74012],[107.38332,16.74073],[107.36931,16.73324],[107.36311,16.7216],[107.35577,16.70978],[107.35449,16.71064],[107.35272,16.70791],[107.35156,16.70887],[107.35113,16.70831],[107.35342,16.70544],[107.35488,16.70578],[107.35867,16.70311],[107.35775,16.70039],[107.35814,16.6986],[107.35308,16.69836],[107.35013,16.69676],[107.34871,16.69495],[107.34776,16.69243],[107.34352,16.69082],[107.34142,16.68706],[107.33903,16.68498],[107.33685,16.68406],[107.33584,16.68112],[107.33397,16.67921],[107.33357,16.67554],[107.33117,16.67357],[107.32649,16.67179],[107.32393,16.66989],[107.32413,16.66897],[107.32543,16.66832],[107.32836,16.66907],[107.33136,16.66789],[107.33025,16.66605],[107.32856,16.66532],[107.32266,16.66513],[107.32056,16.66284],[107.31829,16.66229],[107.31902,16.65936],[107.32216,16.65652],[107.32427,16.65699],[107.32487,16.65596],[107.32483,16.65472],[107.32668,16.65307],[107.32872,16.64999],[107.32952,16.646],[107.33022,16.6451],[107.32876,16.64373],[107.32891,16.64255],[107.32535,16.64249],[107.32493,16.64442],[107.32517,16.64836],[107.32322,16.65167],[107.32287,16.65369],[107.3221,16.65383],[107.32132,16.65287],[107.31831,16.65238],[107.31725,16.65176],[107.31465,16.64835],[107.30695,16.64072],[107.30687,16.63889],[107.3077,16.63731],[107.30923,16.63592],[107.31158,16.63539],[107.31306,16.63613],[107.31327,16.63806],[107.31465,16.63774],[107.31485,16.64015],[107.31538,16.64035],[107.31589,16.63831],[107.31015,16.62538],[107.3115,16.62399],[107.31929,16.62117],[107.3207,16.62008],[107.32219,16.61819],[107.32351,16.61386],[107.32855,16.60803],[107.32485,16.605],[107.32864,16.60254],[107.33117,16.60232],[107.33129,16.6017],[107.33401,16.59964],[107.33446,16.59877],[107.33329,16.59823],[107.33029,16.59945],[107.32923,16.59897],[107.32715,16.59909],[107.32719,16.59868],[107.32591,16.59834],[107.32427,16.59834],[107.32454,16.59717],[107.32405,16.59563],[107.32437,16.59508],[107.32403,16.59187],[107.32527,16.59098],[107.32547,16.59018],[107.32682,16.58958],[107.32599,16.58944],[107.32593,16.58888],[107.32658,16.58629],[107.32483,16.58568],[107.32413,16.58594],[107.32298,16.58497],[107.32295,16.58375],[107.31908,16.58306],[107.31788,16.58234],[107.31677,16.58056],[107.31485,16.58081],[107.31379,16.58011],[107.31357,16.57937],[107.31275,16.57931],[107.30997,16.58189],[107.30314,16.58391],[107.30271,16.58685],[107.30155,16.58653],[107.29731,16.58275],[107.29737,16.58205],[107.29295,16.58067],[107.29105,16.58059],[107.29029,16.57986],[107.29048,16.5785],[107.28907,16.57827],[107.28842,16.57674],[107.28695,16.57528],[107.28326,16.57535],[107.28153,16.57367],[107.28134,16.57233],[107.28039,16.57269],[107.279,16.57167],[107.27815,16.57171],[107.27735,16.57266],[107.27674,16.57256],[107.2765,16.57156],[107.27555,16.57095],[107.27527,16.57012],[107.27135,16.56666],[107.27127,16.56555],[107.27007,16.56725],[107.26809,16.56763],[107.26696,16.56989],[107.26496,16.57133],[107.25538,16.57385],[107.25385,16.57522],[107.25334,16.57714],[107.25182,16.57674],[107.25092,16.57701],[107.24908,16.57896],[107.24924,16.58011],[107.24712,16.58196],[107.24817,16.58336],[107.24787,16.58535],[107.24538,16.58684],[107.24476,16.58775],[107.24413,16.58646],[107.24214,16.58464],[107.24056,16.58407],[107.23918,16.58222],[107.23773,16.58225],[107.23697,16.58274],[107.23495,16.58225],[107.23384,16.58147],[107.23321,16.58183],[107.23258,16.58147],[107.23024,16.58176],[107.22846,16.57922],[107.22359,16.58032],[107.22223,16.58006],[107.22168,16.57898],[107.21697,16.57808],[107.21604,16.57894],[107.21603,16.57965],[107.21414,16.57989],[107.21144,16.5785],[107.20898,16.57917],[107.20622,16.5788],[107.20344,16.58095],[107.20353,16.58149],[107.20262,16.58274],[107.19805,16.58143],[107.19531,16.58185],[107.19344,16.58006],[107.18917,16.57916],[107.18751,16.57904],[107.18611,16.58003],[107.18477,16.57987],[107.18406,16.58046],[107.18279,16.57991],[107.18257,16.57853],[107.18157,16.57919],[107.18098,16.57828],[107.17837,16.57648],[107.17609,16.57736],[107.17569,16.57834],[107.17437,16.57815],[107.17383,16.57862],[107.17174,16.57804],[107.16949,16.57875],[107.16887,16.57804],[107.16517,16.57731],[107.16502,16.57659],[107.16323,16.57552],[107.16152,16.57554],[107.1606,16.57466],[107.15708,16.57312],[107.15417,16.57505],[107.15045,16.57412],[107.14876,16.57292],[107.14454,16.5715],[107.14083,16.57187],[107.13787,16.56991],[107.13702,16.56854],[107.13203,16.56722],[107.12973,16.56558],[107.12823,16.56571],[107.12585,16.56387],[107.12316,16.56068],[107.12448,16.55794],[107.12337,16.5572],[107.12231,16.55524],[107.12152,16.55195],[107.11519,16.55256],[107.11372,16.55078],[107.11106,16.55142],[107.10947,16.55072],[107.10173,16.55272],[107.09742,16.55042],[107.09493,16.55015],[107.09212,16.55064],[107.09014,16.54881],[107.0884,16.54809],[107.08948,16.54744],[107.08715,16.5457],[107.08384,16.54645],[107.08132,16.54586],[107.07992,16.54644],[107.07929,16.54575],[107.07679,16.54626],[107.07625,16.54567],[107.07615,16.54401],[107.07447,16.54238],[107.07193,16.54354],[107.06778,16.54393],[107.06492,16.54462],[107.06291,16.54572],[107.06122,16.54578],[107.06095,16.54438],[107.06022,16.54372],[107.06014,16.54227],[107.06142,16.54014],[107.06092,16.53848],[107.06237,16.5369],[107.06012,16.533],[107.05961,16.53034],[107.05792,16.52911],[107.05784,16.52773],[107.05674,16.52527],[107.05548,16.52423],[107.05723,16.52241],[107.05789,16.51952],[107.05958,16.51753],[107.0615,16.51688],[107.0677,16.51053],[107.07052,16.50991],[107.07256,16.51102],[107.07418,16.51105],[107.07616,16.50849],[107.07858,16.50829],[107.0797,16.5089],[107.08184,16.50466],[107.08194,16.50311],[107.08405,16.50263],[107.08802,16.50272],[107.08925,16.50318],[107.09061,16.50458],[107.09227,16.5037],[107.09524,16.50438],[107.09451,16.50241],[107.09468,16.50103],[107.09722,16.49706],[107.09777,16.49344],[107.09864,16.49113],[107.10015,16.49061],[107.10048,16.49258],[107.10204,16.49488],[107.10354,16.49534],[107.10441,16.49495],[107.10597,16.49518],[107.10796,16.49405],[107.10894,16.49284],[107.11025,16.49247],[107.11259,16.49083],[107.11449,16.48852],[107.11694,16.48834],[107.11814,16.48772],[107.1197,16.48794],[107.12062,16.48607],[107.12135,16.48595],[107.12146,16.48498],[107.12543,16.48145],[107.1261,16.4769],[107.12871,16.47658],[107.1298,16.47546],[107.13005,16.47389],[107.12918,16.47258],[107.12924,16.47194],[107.12982,16.47041],[107.13075,16.47046],[107.1319,16.46914],[107.13287,16.46659],[107.13379,16.46174],[107.13491,16.46119],[107.13495,16.45967],[107.13566,16.45893],[107.13538,16.45775],[107.1357,16.45626],[107.13512,16.45506],[107.13529,16.45327],[107.1335,16.45245],[107.1316,16.44979],[107.12962,16.44927],[107.13356,16.44596],[107.13878,16.44335],[107.13743,16.44045],[107.13782,16.43989],[107.13892,16.43976],[107.14275,16.43707],[107.14729,16.43763],[107.14871,16.43456],[107.14826,16.4332],[107.14695,16.43304],[107.14403,16.42823],[107.1446,16.42519],[107.14611,16.42353],[107.14511,16.42011],[107.14381,16.41941],[107.14345,16.41854],[107.1415,16.41788],[107.1407,16.41617],[107.14084,16.41496],[107.14358,16.41249],[107.14332,16.41081],[107.1425,16.41054],[107.14224,16.40914],[107.14122,16.40788],[107.14102,16.40612],[107.14228,16.40402],[107.1422,16.40304],[107.14395,16.40051],[107.14773,16.39663],[107.14963,16.39538],[107.15113,16.39267],[107.15259,16.39143],[107.15301,16.38947],[107.15111,16.38853],[107.15034,16.38758],[107.14946,16.38749],[107.14809,16.38615],[107.14678,16.38594],[107.14571,16.38737],[107.14419,16.38808],[107.14176,16.38823],[107.14008,16.38952],[107.13939,16.3895],[107.13845,16.38853],[107.13538,16.38773],[107.12943,16.38408],[107.12824,16.38213],[107.12683,16.38367],[107.12331,16.38591],[107.12152,16.38596],[107.11931,16.38524],[107.11181,16.38567],[107.10966,16.38639],[107.10809,16.38796],[107.10672,16.39034],[107.10499,16.39107],[107.10437,16.39215],[107.10506,16.39298],[107.10391,16.39397],[107.10298,16.39413],[107.102,16.39548],[107.09992,16.3963],[107.09856,16.39855],[107.09745,16.39909],[107.09708,16.40043],[107.09626,16.40098],[107.09532,16.40386],[107.094,16.40426],[107.09357,16.40382],[107.09388,16.40298],[107.09356,16.40218],[107.09509,16.40017],[107.09539,16.39896],[107.09468,16.39821],[107.09426,16.40019],[107.0928,16.40196],[107.09256,16.40333],[107.09091,16.40409],[107.08912,16.4025],[107.08619,16.40253],[107.08522,16.40317],[107.08334,16.40257],[107.08186,16.40265],[107.08236,16.3999],[107.08093,16.40052],[107.07901,16.40052],[107.07514,16.40245],[107.07177,16.40293],[107.07099,16.4039],[107.0677,16.40576],[107.06435,16.4106],[107.06247,16.4108],[107.06142,16.41167],[107.0613,16.40954],[107.05814,16.40654],[107.05793,16.40551],[107.05924,16.40224],[107.0562,16.40036],[107.05656,16.39891],[107.05778,16.39847],[107.05906,16.39661],[107.05817,16.39278],[107.05858,16.39126],[107.05777,16.38901],[107.05813,16.38804],[107.05936,16.38723],[107.05837,16.38464],[107.05425,16.38157],[107.05231,16.38147],[107.04931,16.3826],[107.04529,16.38029],[107.04347,16.37608],[107.04038,16.37277],[107.03977,16.36988],[107.03911,16.36939],[107.03801,16.37025],[107.03622,16.36708],[107.03572,16.36528],[107.03661,16.3643],[107.03516,16.36362],[107.03479,16.36198],[107.03517,16.35992],[107.03449,16.35856]]]}},{"type":"Feature","properties":{"id":"huong-thuy","anchor":[107.65479,16.41712],"km2":428.97},"geometry":{"type":"Polygon","coordinates":[[[107.49655,16.26639],[107.49691,16.26458],[107.4988,16.26438],[107.5007,16.26546],[107.50209,16.26503],[107.50265,16.26058],[107.50185,16.26005],[107.50153,16.25889],[107.50206,16.25621],[107.50425,16.25538],[107.50702,16.25503],[107.50806,16.25425],[107.50838,16.25275],[107.50761,16.25008],[107.50354,16.24769],[107.50446,16.24554],[107.5056,16.24493],[107.50659,16.24503],[107.50963,16.24665],[107.51062,16.24832],[107.51185,16.24855],[107.5133,16.24783],[107.51388,16.24531],[107.51632,16.24378],[107.51649,16.24208],[107.51589,16.24114],[107.51574,16.23948],[107.51668,16.23751],[107.51936,16.23475],[107.51986,16.2319],[107.52145,16.23003],[107.52206,16.2282],[107.52228,16.225],[107.5272,16.2208],[107.52586,16.2171],[107.52851,16.2149],[107.52954,16.21119],[107.52909,16.21003],[107.52789,16.20901],[107.52916,16.20663],[107.52793,16.20471],[107.52786,16.202],[107.52884,16.20011],[107.52909,16.19794],[107.52769,16.19739],[107.52415,16.19766],[107.52249,16.19568],[107.51964,16.19664],[107.5187,16.19534],[107.52111,16.19386],[107.52335,16.19366],[107.52231,16.19141],[107.52314,16.19063],[107.52481,16.19032],[107.52551,16.1893],[107.52487,16.18741],[107.52291,16.18524],[107.52328,16.18412],[107.52294,16.18298],[107.52017,16.18349],[107.51946,16.18263],[107.5206,16.18063],[107.5197,16.1798],[107.51991,16.17805],[107.52177,16.17732],[107.52246,16.17574],[107.52225,16.17506],[107.52183,16.17461],[107.51995,16.17454],[107.52056,16.17303],[107.52027,16.17225],[107.51912,16.1722],[107.51612,16.17026],[107.51836,16.16745],[107.51754,16.1656],[107.5176,16.16438],[107.51871,16.16477],[107.51954,16.16437],[107.51945,16.16118],[107.51833,16.16029],[107.5187,16.15967],[107.52014,16.15939],[107.5211,16.15604],[107.524,16.15731],[107.52589,16.15927],[107.52966,16.16074],[107.53163,16.16046],[107.53308,16.16105],[107.53537,16.15954],[107.53716,16.15955],[107.53834,16.1587],[107.54052,16.15881],[107.54186,16.15764],[107.5449,16.15829],[107.54701,16.16118],[107.54872,16.16175],[107.54933,16.1615],[107.55106,16.16288],[107.55305,16.16239],[107.55529,16.16269],[107.55999,16.16117],[107.56432,16.1617],[107.57466,16.16654],[107.57463,16.17204],[107.57508,16.17386],[107.57541,16.17421],[107.57808,16.17381],[107.58058,16.17286],[107.58198,16.17688],[107.58486,16.17918],[107.5875,16.17977],[107.59216,16.17835],[107.5938,16.17829],[107.59642,16.17942],[107.59942,16.18291],[107.60366,16.18399],[107.6071,16.18388],[107.60823,16.18435],[107.61075,16.1835],[107.61279,16.18339],[107.61618,16.18721],[107.61927,16.18532],[107.62396,16.1883],[107.62479,16.19049],[107.62662,16.19316],[107.62853,16.19462],[107.62973,16.19466],[107.63133,16.19982],[107.63206,16.19952],[107.63705,16.20152],[107.63806,16.20124],[107.63974,16.19964],[107.64199,16.20046],[107.64961,16.2004],[107.6506,16.20209],[107.6499,16.20432],[107.6509,16.20649],[107.65386,16.20619],[107.65423,16.20716],[107.65558,16.20816],[107.65593,16.2096],[107.65738,16.20955],[107.65994,16.21066],[107.66332,16.21023],[107.66378,16.21158],[107.6671,16.21498],[107.66824,16.21696],[107.66634,16.21774],[107.66553,16.21921],[107.66742,16.22344],[107.67089,16.22652],[107.67126,16.22817],[107.66998,16.22959],[107.66513,16.23087],[107.66337,16.23229],[107.66165,16.23746],[107.66269,16.23992],[107.66397,16.2407],[107.66907,16.24049],[107.67081,16.24102],[107.67131,16.24367],[107.66825,16.24802],[107.66826,16.24899],[107.66768,16.24966],[107.66786,16.2518],[107.66728,16.25286],[107.66363,16.25434],[107.65882,16.25417],[107.65749,16.25567],[107.65668,16.25786],[107.65538,16.25864],[107.65585,16.25939],[107.65531,16.26054],[107.65568,16.26277],[107.65498,16.26435],[107.65389,16.26421],[107.65374,16.26574],[107.65185,16.26713],[107.65279,16.26779],[107.65245,16.26924],[107.65108,16.26945],[107.64871,16.27264],[107.64975,16.27473],[107.64992,16.27867],[107.65082,16.28075],[107.65142,16.28121],[107.65275,16.28088],[107.65304,16.28216],[107.6562,16.28119],[107.65627,16.27952],[107.65701,16.27845],[107.658,16.2787],[107.65852,16.27936],[107.66161,16.27983],[107.66404,16.27881],[107.66552,16.27976],[107.66644,16.27972],[107.66647,16.28084],[107.66776,16.28132],[107.66858,16.28045],[107.66975,16.28137],[107.67064,16.28107],[107.6738,16.28182],[107.67497,16.28156],[107.6772,16.28336],[107.68006,16.28432],[107.67897,16.28645],[107.6793,16.28834],[107.68002,16.29005],[107.68152,16.2911],[107.68227,16.29307],[107.68373,16.29335],[107.68331,16.29411],[107.68403,16.29483],[107.68263,16.29634],[107.68329,16.29763],[107.68679,16.30088],[107.68853,16.3032],[107.68862,16.308],[107.68945,16.30894],[107.69022,16.30867],[107.69093,16.30989],[107.69166,16.31017],[107.69105,16.31148],[107.69132,16.31386],[107.69369,16.31598],[107.69273,16.31707],[107.6937,16.32017],[107.69865,16.32991],[107.70087,16.3329],[107.70162,16.33537],[107.70144,16.33762],[107.70084,16.33859],[107.70224,16.34068],[107.70379,16.34556],[107.70562,16.34864],[107.71238,16.35261],[107.71495,16.35525],[107.7169,16.35563],[107.71741,16.357],[107.71816,16.35647],[107.72019,16.35748],[107.7206,16.36066],[107.72133,16.36098],[107.72152,16.36258],[107.72223,16.36253],[107.726,16.3674],[107.72553,16.36863],[107.72748,16.37079],[107.73011,16.36961],[107.7336,16.37302],[107.73523,16.37117],[107.73738,16.37497],[107.73711,16.37882],[107.738,16.38196],[107.74055,16.38077],[107.73965,16.377],[107.74107,16.37579],[107.74381,16.37692],[107.74805,16.37114],[107.74948,16.37133],[107.75094,16.36998],[107.75281,16.36979],[107.75478,16.36808],[107.75727,16.36787],[107.75682,16.37044],[107.75716,16.37398],[107.75453,16.37942],[107.75343,16.38285],[107.75128,16.38608],[107.74627,16.39154],[107.74323,16.39323],[107.73802,16.39494],[107.73619,16.39691],[107.73498,16.39938],[107.73313,16.40741],[107.73131,16.41026],[107.72715,16.41289],[107.71756,16.41715],[107.71427,16.41965],[107.7124,16.42331],[107.71245,16.42796],[107.71197,16.42963],[107.70984,16.43201],[107.70638,16.43467],[107.69988,16.4356],[107.68932,16.43126],[107.6875,16.43096],[107.68456,16.43234],[107.67815,16.43998],[107.67494,16.443],[107.67331,16.44324],[107.6694,16.44255],[107.66616,16.44298],[107.66363,16.44544],[107.66057,16.45126],[107.6589,16.45183],[107.65405,16.45198],[107.65337,16.45249],[107.65287,16.45402],[107.6535,16.45623],[107.65333,16.45797],[107.65188,16.46142],[107.65002,16.4633],[107.6433,16.4665],[107.64241,16.46773],[107.64174,16.47063],[107.64267,16.47286],[107.64409,16.47414],[107.65157,16.47532],[107.65258,16.47739],[107.65199,16.47944],[107.64954,16.48151],[107.64032,16.484],[107.63074,16.48975],[107.62992,16.48675],[107.62989,16.48624],[107.63073,16.48602],[107.6303,16.48419],[107.63181,16.48383],[107.63204,16.48136],[107.63323,16.47872],[107.62976,16.47685],[107.63037,16.47566],[107.62678,16.47388],[107.62697,16.47261],[107.62431,16.47222],[107.62421,16.47051],[107.62427,16.4697],[107.62687,16.46997],[107.62686,16.46732],[107.62624,16.46716],[107.62691,16.46595],[107.62761,16.46627],[107.63023,16.4626],[107.62901,16.46222],[107.62923,16.46154],[107.6282,16.46129],[107.62769,16.4618],[107.62656,16.46174],[107.62708,16.45967],[107.62437,16.45982],[107.62387,16.46043],[107.62397,16.46173],[107.62252,16.4617],[107.62252,16.46124],[107.61958,16.46144],[107.62068,16.45607],[107.62221,16.4552],[107.62078,16.45281],[107.62011,16.45317],[107.61826,16.45231],[107.61863,16.44983],[107.61782,16.4499],[107.61688,16.44829],[107.61552,16.44907],[107.61496,16.44859],[107.61473,16.44926],[107.61384,16.44969],[107.61293,16.44941],[107.61231,16.44821],[107.61076,16.44755],[107.6103,16.44653],[107.60922,16.44582],[107.61059,16.44483],[107.60991,16.44404],[107.61135,16.44368],[107.6113,16.44257],[107.6117,16.44267],[107.6122,16.44153],[107.61105,16.4413],[107.61123,16.44038],[107.6105,16.44025],[107.61044,16.43829],[107.61092,16.43728],[107.61021,16.43702],[107.61094,16.43566],[107.6104,16.43397],[107.61077,16.43306],[107.61003,16.43084],[107.6087,16.42945],[107.6085,16.42733],[107.60915,16.42673],[107.60925,16.42588],[107.60763,16.42428],[107.60881,16.42249],[107.61022,16.42221],[107.61056,16.42173],[107.61078,16.42002],[107.61013,16.41874],[107.61082,16.41523],[107.61222,16.41399],[107.61217,16.4116],[107.61509,16.40859],[107.61462,16.4083],[107.61488,16.4078],[107.61257,16.40778],[107.61289,16.40489],[107.6122,16.40238],[107.61142,16.40193],[107.61084,16.4006],[107.60969,16.39652],[107.61004,16.39235],[107.61112,16.3912],[107.61134,16.39019],[107.62001,16.38952],[107.62178,16.38894],[107.62202,16.3884],[107.62197,16.38769],[107.61989,16.38719],[107.61954,16.38613],[107.62117,16.38346],[107.62124,16.38258],[107.62228,16.38183],[107.62175,16.38071],[107.61977,16.37921],[107.61873,16.37904],[107.61892,16.37813],[107.61994,16.37726],[107.61989,16.37595],[107.62088,16.37411],[107.62043,16.37339],[107.62053,16.37235],[107.61977,16.37179],[107.61747,16.37207],[107.61681,16.37167],[107.61569,16.36886],[107.6158,16.36682],[107.61828,16.36482],[107.62049,16.35886],[107.62062,16.35687],[107.62245,16.35747],[107.6233,16.35625],[107.62366,16.35652],[107.62433,16.35612],[107.62466,16.35759],[107.62633,16.3562],[107.62521,16.35435],[107.62358,16.35392],[107.62335,16.35238],[107.62192,16.35187],[107.62229,16.35079],[107.62279,16.35081],[107.62342,16.35187],[107.62399,16.35114],[107.6243,16.34626],[107.62508,16.34673],[107.62567,16.34647],[107.62769,16.34427],[107.62831,16.34483],[107.63029,16.34438],[107.63145,16.34528],[107.63218,16.34517],[107.63272,16.34361],[107.63355,16.34287],[107.63414,16.34079],[107.6319,16.3402],[107.62901,16.34027],[107.62229,16.33875],[107.62165,16.33956],[107.62066,16.33956],[107.61964,16.34273],[107.61729,16.34653],[107.61537,16.3527],[107.61451,16.35326],[107.61253,16.35319],[107.61022,16.35221],[107.60841,16.35328],[107.6077,16.35253],[107.60638,16.35245],[107.60683,16.35099],[107.606,16.35048],[107.60784,16.35059],[107.60751,16.3497],[107.60836,16.34826],[107.60679,16.34714],[107.60653,16.34855],[107.6054,16.34837],[107.60508,16.34926],[107.60447,16.34784],[107.60349,16.34851],[107.60279,16.34788],[107.60291,16.34695],[107.60167,16.34689],[107.60123,16.34738],[107.60114,16.34659],[107.5991,16.34576],[107.59853,16.34443],[107.59774,16.34443],[107.5976,16.34338],[107.5968,16.34437],[107.59641,16.34261],[107.59586,16.34245],[107.5959,16.34159],[107.5947,16.34312],[107.5945,16.34425],[107.59172,16.345],[107.59059,16.34644],[107.5806,16.34378],[107.57773,16.34344],[107.57374,16.34436],[107.57118,16.34439],[107.56978,16.34573],[107.56966,16.34322],[107.5668,16.34111],[107.56538,16.33832],[107.56227,16.3383],[107.56155,16.33955],[107.56059,16.33807],[107.55969,16.33794],[107.5581,16.33675],[107.55841,16.33504],[107.55955,16.33408],[107.55928,16.33272],[107.55973,16.33239],[107.55894,16.32987],[107.55948,16.329],[107.55869,16.32895],[107.55752,16.32797],[107.55566,16.32888],[107.5541,16.3264],[107.5518,16.32441],[107.54984,16.32484],[107.54864,16.32573],[107.54745,16.32553],[107.54742,16.32392],[107.54574,16.32228],[107.54473,16.3224],[107.5427,16.32446],[107.54191,16.32414],[107.54103,16.32244],[107.53932,16.32139],[107.53563,16.32354],[107.5331,16.32057],[107.53101,16.32042],[107.53002,16.31956],[107.53165,16.31785],[107.53262,16.31555],[107.53238,16.31459],[107.53334,16.3132],[107.53306,16.31181],[107.53379,16.31039],[107.53296,16.30691],[107.5337,16.30539],[107.53528,16.3051],[107.53431,16.30394],[107.53413,16.30211],[107.53301,16.30159],[107.53241,16.2994],[107.53247,16.2989],[107.53322,16.29871],[107.53383,16.29722],[107.53262,16.29393],[107.53414,16.29173],[107.53394,16.29057],[107.53099,16.28815],[107.53016,16.28659],[107.52921,16.28681],[107.52782,16.28587],[107.5265,16.28326],[107.52463,16.28226],[107.5245,16.28113],[107.5218,16.28095],[107.51994,16.27968],[107.51816,16.27975],[107.51758,16.27765],[107.51435,16.27654],[107.51175,16.27432],[107.50697,16.2722],[107.50674,16.27018],[107.50202,16.2697],[107.50031,16.27039],[107.4994,16.27012],[107.49759,16.26874],[107.49655,16.26639]]]}},{"type":"Feature","properties":{"id":"huong-tra","anchor":[107.45958,16.46882],"km2":393.79},"geometry":{"type":"Polygon","coordinates":[[[107.32894,16.36628],[107.32924,16.36563],[107.33454,16.3621],[107.33538,16.3588],[107.33747,16.35864],[107.338,16.35794],[107.33722,16.3562],[107.33802,16.35474],[107.33771,16.35352],[107.33422,16.35177],[107.33299,16.35037],[107.33032,16.35049],[107.33044,16.34917],[107.33161,16.34713],[107.33294,16.34619],[107.33619,16.34619],[107.33878,16.34421],[107.34296,16.34443],[107.34428,16.34364],[107.34479,16.34261],[107.3486,16.34347],[107.35029,16.34242],[107.35176,16.34244],[107.35399,16.34158],[107.35598,16.3397],[107.35803,16.33926],[107.3607,16.34007],[107.36244,16.34135],[107.36341,16.34088],[107.3655,16.34114],[107.3695,16.34053],[107.3707,16.33923],[107.37435,16.33794],[107.37544,16.33708],[107.37609,16.33795],[107.37883,16.33823],[107.38171,16.34042],[107.38208,16.3429],[107.38347,16.34478],[107.38715,16.34611],[107.39164,16.34554],[107.39331,16.34595],[107.39708,16.34498],[107.39784,16.34437],[107.4008,16.34553],[107.40241,16.34545],[107.40427,16.34381],[107.40795,16.34251],[107.40859,16.33998],[107.40671,16.33564],[107.40181,16.33189],[107.40208,16.33101],[107.40163,16.3299],[107.40081,16.32936],[107.40118,16.32878],[107.4009,16.32803],[107.39913,16.32567],[107.39985,16.32479],[107.39951,16.32128],[107.40021,16.31971],[107.39912,16.31753],[107.40173,16.31698],[107.40243,16.31542],[107.40439,16.31345],[107.40546,16.31352],[107.40627,16.31163],[107.40801,16.30992],[107.40846,16.3088],[107.41245,16.30811],[107.41432,16.30687],[107.41404,16.30495],[107.41457,16.30445],[107.41488,16.30119],[107.41417,16.29937],[107.41182,16.29595],[107.41207,16.29369],[107.41095,16.29235],[107.41089,16.29118],[107.412,16.28915],[107.41162,16.2876],[107.4135,16.28572],[107.41387,16.28461],[107.41277,16.28185],[107.41286,16.2801],[107.41463,16.27884],[107.41579,16.27872],[107.41772,16.27943],[107.42038,16.27863],[107.4229,16.27766],[107.42524,16.27564],[107.42642,16.27264],[107.42886,16.271],[107.42864,16.26879],[107.43089,16.26827],[107.42975,16.26647],[107.42984,16.26589],[107.43098,16.2655],[107.43037,16.2644],[107.43142,16.26425],[107.43287,16.26494],[107.43532,16.26283],[107.43498,16.26103],[107.43594,16.25824],[107.43947,16.25736],[107.4413,16.25606],[107.44411,16.25605],[107.44437,16.25679],[107.44519,16.25669],[107.44558,16.25499],[107.44595,16.25489],[107.44631,16.25552],[107.44755,16.25445],[107.44752,16.25529],[107.4481,16.25536],[107.44861,16.25443],[107.45276,16.25638],[107.45352,16.25728],[107.45361,16.25853],[107.45498,16.25893],[107.45713,16.25746],[107.45738,16.25461],[107.45946,16.25446],[107.46028,16.25605],[107.46198,16.25631],[107.46282,16.25763],[107.46762,16.26084],[107.46999,16.26052],[107.47001,16.26268],[107.4711,16.26422],[107.47172,16.26415],[107.4733,16.26256],[107.47518,16.26262],[107.47537,16.26316],[107.47415,16.26465],[107.47427,16.26655],[107.47487,16.26635],[107.47677,16.2629],[107.47756,16.26277],[107.4801,16.26641],[107.48387,16.26766],[107.48625,16.26763],[107.48796,16.26815],[107.48893,16.26803],[107.48973,16.26716],[107.49375,16.27021],[107.49638,16.27027],[107.49746,16.2687],[107.5001,16.2704],[107.50202,16.2697],[107.50674,16.27018],[107.50697,16.2722],[107.51175,16.27432],[107.51435,16.27654],[107.51758,16.27765],[107.51816,16.27975],[107.51994,16.27968],[107.5218,16.28095],[107.5245,16.28113],[107.52463,16.28226],[107.5265,16.28326],[107.52782,16.28587],[107.52921,16.28681],[107.53016,16.28659],[107.53099,16.28815],[107.53376,16.2904],[107.53416,16.29122],[107.53262,16.29393],[107.53383,16.29722],[107.53322,16.29871],[107.53247,16.2989],[107.53241,16.2994],[107.53301,16.30159],[107.53413,16.30211],[107.53431,16.30394],[107.53528,16.3051],[107.5337,16.30539],[107.53296,16.30691],[107.53379,16.31039],[107.53306,16.31181],[107.53334,16.3132],[107.53238,16.31459],[107.53262,16.31555],[107.53165,16.31785],[107.53002,16.31956],[107.53101,16.32042],[107.5331,16.32057],[107.53563,16.32354],[107.53922,16.32138],[107.54103,16.32244],[107.54191,16.32414],[107.54254,16.32448],[107.54493,16.32228],[107.54619,16.32258],[107.54609,16.32793],[107.54562,16.32858],[107.544,16.32886],[107.54275,16.33027],[107.54279,16.33215],[107.54142,16.33534],[107.54045,16.33643],[107.54177,16.33918],[107.54337,16.33966],[107.54467,16.34086],[107.5448,16.34237],[107.5441,16.34388],[107.54385,16.34679],[107.54274,16.34858],[107.54236,16.35051],[107.54336,16.35154],[107.54556,16.3522],[107.54794,16.35629],[107.5485,16.35643],[107.54968,16.35551],[107.55078,16.35599],[107.55079,16.35789],[107.55154,16.35812],[107.55142,16.35928],[107.55408,16.36116],[107.54994,16.36663],[107.54609,16.37049],[107.54517,16.37015],[107.54323,16.37317],[107.54122,16.3733],[107.54002,16.37641],[107.53797,16.37763],[107.54008,16.37995],[107.53985,16.38031],[107.54084,16.38222],[107.54261,16.38433],[107.5426,16.38553],[107.53789,16.38846],[107.53655,16.38992],[107.53476,16.39055],[107.53107,16.38994],[107.53011,16.39054],[107.52229,16.39092],[107.52195,16.39211],[107.52323,16.39327],[107.52278,16.3945],[107.52178,16.39529],[107.52184,16.39639],[107.52297,16.39731],[107.52298,16.39872],[107.52438,16.39964],[107.52366,16.40104],[107.52473,16.40174],[107.5253,16.40339],[107.525,16.40542],[107.52147,16.40521],[107.52036,16.40427],[107.51855,16.40539],[107.51763,16.40546],[107.51706,16.41044],[107.51559,16.41137],[107.51255,16.41082],[107.51173,16.40985],[107.50874,16.41046],[107.5037,16.4098],[107.50215,16.40899],[107.49838,16.41169],[107.49589,16.41224],[107.49443,16.41309],[107.49224,16.41255],[107.49175,16.41169],[107.48958,16.41218],[107.48841,16.41142],[107.48766,16.41158],[107.4836,16.41622],[107.48133,16.4175],[107.47692,16.42241],[107.47633,16.42243],[107.47447,16.42398],[107.47407,16.42571],[107.47281,16.42629],[107.47148,16.42627],[107.47013,16.42723],[107.47081,16.42921],[107.46976,16.43055],[107.46982,16.43177],[107.46864,16.43362],[107.46887,16.43519],[107.46836,16.43776],[107.47076,16.43917],[107.47189,16.44042],[107.47272,16.44236],[107.47641,16.44464],[107.4777,16.44632],[107.4789,16.45024],[107.47994,16.45087],[107.48081,16.45248],[107.48319,16.45257],[107.48681,16.45109],[107.49157,16.45237],[107.49179,16.45355],[107.49355,16.45559],[107.49551,16.45475],[107.49595,16.45636],[107.49917,16.46035],[107.50227,16.46554],[107.50343,16.46646],[107.50314,16.46681],[107.50598,16.47327],[107.5084,16.47447],[107.50981,16.47432],[107.51249,16.47513],[107.51191,16.4755],[107.51178,16.4769],[107.51318,16.47668],[107.51563,16.47782],[107.51533,16.47976],[107.51671,16.47993],[107.51714,16.47865],[107.51906,16.48002],[107.5205,16.48024],[107.52158,16.47864],[107.52266,16.47908],[107.52291,16.4781],[107.52415,16.47847],[107.52561,16.48026],[107.52828,16.48131],[107.52799,16.48346],[107.53304,16.4853],[107.53133,16.48986],[107.53274,16.49029],[107.53359,16.49131],[107.53317,16.49228],[107.53265,16.49181],[107.53264,16.4925],[107.5321,16.49245],[107.53198,16.49289],[107.53264,16.49309],[107.53261,16.49358],[107.53337,16.49359],[107.53419,16.49541],[107.53551,16.4953],[107.53496,16.49809],[107.53814,16.49912],[107.53834,16.50033],[107.54036,16.50141],[107.54195,16.4985],[107.54552,16.49396],[107.54749,16.49434],[107.54777,16.49544],[107.54662,16.49751],[107.54702,16.49772],[107.54689,16.49824],[107.54846,16.49922],[107.54806,16.50423],[107.54999,16.50654],[107.55098,16.50699],[107.55163,16.50547],[107.55226,16.50585],[107.55278,16.50624],[107.55209,16.50687],[107.5527,16.50694],[107.55367,16.50803],[107.55272,16.50989],[107.55074,16.51204],[107.55201,16.51383],[107.55013,16.51461],[107.55075,16.51672],[107.55147,16.51794],[107.55232,16.51775],[107.5523,16.51699],[107.55408,16.51766],[107.55473,16.51881],[107.55707,16.51828],[107.55755,16.52047],[107.55937,16.52175],[107.56212,16.52238],[107.56212,16.52314],[107.56047,16.52515],[107.55942,16.52514],[107.55831,16.52667],[107.55655,16.52545],[107.55459,16.5259],[107.55216,16.53],[107.54974,16.53242],[107.54739,16.53315],[107.54137,16.53329],[107.5394,16.53256],[107.53538,16.52934],[107.5308,16.52666],[107.53051,16.52504],[107.53136,16.52342],[107.53307,16.52277],[107.53605,16.52302],[107.53615,16.52265],[107.53509,16.52146],[107.53158,16.52027],[107.52966,16.52042],[107.52965,16.52193],[107.52881,16.52438],[107.52603,16.527],[107.52316,16.52808],[107.52106,16.52765],[107.51881,16.52406],[107.51768,16.51964],[107.51866,16.51869],[107.52053,16.51827],[107.52076,16.51737],[107.51883,16.51592],[107.51599,16.51564],[107.51285,16.51661],[107.51143,16.51758],[107.50978,16.52079],[107.5097,16.52298],[107.51046,16.52556],[107.51229,16.52898],[107.51447,16.53139],[107.51245,16.53343],[107.512,16.53559],[107.51108,16.5366],[107.5051,16.53485],[107.50226,16.53075],[107.49831,16.52669],[107.49661,16.52561],[107.4882,16.52463],[107.48041,16.52549],[107.47835,16.52631],[107.47545,16.52894],[107.46949,16.53834],[107.46135,16.54586],[107.45919,16.54618],[107.45619,16.54461],[107.45208,16.54151],[107.44281,16.53236],[107.44267,16.52695],[107.44426,16.51967],[107.43922,16.51218],[107.43651,16.50699],[107.43595,16.50266],[107.43631,16.49421],[107.43407,16.48072],[107.43516,16.47992],[107.43911,16.47894],[107.43976,16.47756],[107.44065,16.47179],[107.43436,16.46892],[107.43143,16.4684],[107.43021,16.46433],[107.426,16.46266],[107.42411,16.46124],[107.42291,16.45907],[107.42283,16.45821],[107.4244,16.45373],[107.42042,16.45147],[107.41906,16.45118],[107.41754,16.45152],[107.41525,16.45027],[107.4143,16.44133],[107.41489,16.4392],[107.41788,16.43432],[107.41564,16.43226],[107.41438,16.43267],[107.41293,16.43399],[107.41215,16.43721],[107.41114,16.43915],[107.40963,16.44012],[107.40777,16.44006],[107.40658,16.4389],[107.40594,16.43722],[107.4055,16.43541],[107.40633,16.43376],[107.40644,16.43186],[107.40568,16.42988],[107.40488,16.42958],[107.40303,16.4306],[107.40249,16.43316],[107.40317,16.43548],[107.40299,16.43664],[107.40128,16.43704],[107.39966,16.4382],[107.39509,16.43767],[107.39463,16.43593],[107.39571,16.43143],[107.39577,16.42911],[107.3947,16.42784],[107.39334,16.4276],[107.39219,16.42627],[107.39155,16.42382],[107.39181,16.42318],[107.39257,16.42312],[107.39303,16.42196],[107.39229,16.42096],[107.38965,16.4192],[107.38878,16.41918],[107.38829,16.41938],[107.38771,16.42088],[107.38535,16.42122],[107.38137,16.41683],[107.37989,16.41609],[107.37697,16.40942],[107.36844,16.40808],[107.36754,16.40358],[107.36644,16.40215],[107.36581,16.40192],[107.36409,16.40266],[107.36223,16.40115],[107.36035,16.40117],[107.35869,16.40169],[107.35568,16.40391],[107.35439,16.40554],[107.35374,16.4058],[107.35313,16.40534],[107.35237,16.40375],[107.3525,16.40304],[107.35309,16.40239],[107.35516,16.40203],[107.356,16.40073],[107.35653,16.39252],[107.35739,16.38967],[107.35817,16.38894],[107.36038,16.38892],[107.36119,16.3884],[107.3615,16.38757],[107.36119,16.38659],[107.35577,16.38395],[107.35258,16.38352],[107.34905,16.38041],[107.34674,16.38045],[107.34503,16.37944],[107.34192,16.3797],[107.34152,16.37656],[107.34002,16.37678],[107.33905,16.37912],[107.33731,16.37933],[107.33594,16.37819],[107.33614,16.37654],[107.33287,16.37568],[107.33297,16.37485],[107.33499,16.37418],[107.3354,16.37362],[107.33439,16.37092],[107.33454,16.36933],[107.33362,16.36895],[107.33151,16.36905],[107.33105,16.36762],[107.32935,16.36692],[107.32894,16.36628]]]}},{"type":"Feature","properties":{"id":"phong-dien","anchor":[107.38285,16.53957],"km2":949.14},"geometry":{"type":"Polygon","coordinates":[[[107.05548,16.52423],[107.05723,16.52241],[107.05789,16.51952],[107.05944,16.51767],[107.06177,16.51664],[107.06287,16.51519],[107.0647,16.51399],[107.06677,16.51113],[107.0704,16.50991],[107.07256,16.51102],[107.07418,16.51105],[107.07616,16.50849],[107.07858,16.50829],[107.0797,16.5089],[107.08184,16.50466],[107.08194,16.50311],[107.08405,16.50263],[107.08802,16.50272],[107.08925,16.50318],[107.09061,16.50458],[107.09227,16.5037],[107.09524,16.50438],[107.09451,16.50241],[107.09468,16.50103],[107.09722,16.49706],[107.09777,16.49344],[107.09864,16.49113],[107.10015,16.49061],[107.10048,16.49258],[107.10204,16.49488],[107.10354,16.49534],[107.10441,16.49495],[107.10597,16.49518],[107.10796,16.49405],[107.10894,16.49284],[107.11025,16.49247],[107.11259,16.49083],[107.11449,16.48852],[107.11694,16.48834],[107.11814,16.48772],[107.1197,16.48794],[107.12062,16.48607],[107.12135,16.48595],[107.12146,16.48498],[107.12543,16.48145],[107.12607,16.47694],[107.12871,16.47658],[107.12989,16.47525],[107.13005,16.47389],[107.12917,16.47255],[107.12955,16.47102],[107.12983,16.4704],[107.13075,16.47046],[107.1319,16.46914],[107.13287,16.46659],[107.13379,16.46174],[107.13491,16.46119],[107.13486,16.45995],[107.1357,16.4588],[107.13538,16.45775],[107.1357,16.45626],[107.13509,16.45479],[107.13538,16.45341],[107.1335,16.45245],[107.1316,16.44979],[107.12962,16.44927],[107.13356,16.44596],[107.13878,16.44335],[107.13743,16.44045],[107.13782,16.43989],[107.13892,16.43976],[107.14275,16.43707],[107.14729,16.43763],[107.14871,16.43456],[107.14826,16.4332],[107.14695,16.43304],[107.14403,16.42823],[107.1446,16.42519],[107.14611,16.42353],[107.14511,16.42011],[107.14381,16.41941],[107.14345,16.41854],[107.1415,16.41788],[107.1407,16.41557],[107.14084,16.41496],[107.14358,16.41249],[107.14332,16.41081],[107.1425,16.41054],[107.14224,16.40914],[107.14112,16.40747],[107.14102,16.40612],[107.14228,16.40402],[107.1422,16.40304],[107.14622,16.398],[107.14963,16.39538],[107.15113,16.39267],[107.15264,16.39132],[107.15295,16.38929],[107.15111,16.38853],[107.15034,16.38758],[107.14946,16.38749],[107.14828,16.38643],[107.14974,16.3828],[107.15159,16.38206],[107.15186,16.38035],[107.15246,16.37973],[107.15839,16.37764],[107.16026,16.37861],[107.16389,16.37871],[107.16545,16.3782],[107.16634,16.37877],[107.16709,16.37848],[107.16814,16.37892],[107.17114,16.37778],[107.17253,16.37773],[107.17563,16.37628],[107.17631,16.37558],[107.17857,16.37002],[107.18058,16.36884],[107.18282,16.36897],[107.18168,16.36568],[107.18472,16.36164],[107.1857,16.35844],[107.18746,16.35564],[107.18807,16.35526],[107.19073,16.35588],[107.19248,16.35534],[107.19294,16.355],[107.19339,16.35285],[107.19482,16.3526],[107.19654,16.35147],[107.19778,16.34887],[107.19955,16.34805],[107.2006,16.34684],[107.20389,16.34762],[107.20615,16.34558],[107.20769,16.34522],[107.21284,16.34657],[107.21448,16.34648],[107.21722,16.34807],[107.22044,16.34776],[107.22113,16.35021],[107.22024,16.35292],[107.22153,16.35523],[107.22178,16.35712],[107.22341,16.35928],[107.22193,16.36107],[107.22237,16.36243],[107.22202,16.36469],[107.2239,16.36525],[107.22694,16.36943],[107.22781,16.36981],[107.22897,16.37131],[107.23062,16.37211],[107.23356,16.37264],[107.23451,16.37456],[107.2383,16.37727],[107.2422,16.37802],[107.24641,16.37995],[107.24649,16.37789],[107.24745,16.37773],[107.24901,16.37657],[107.24969,16.37544],[107.25093,16.37505],[107.25145,16.37632],[107.25253,16.37662],[107.2532,16.3776],[107.25554,16.37849],[107.25856,16.37823],[107.2612,16.3791],[107.26192,16.3801],[107.26558,16.38036],[107.26884,16.38159],[107.27048,16.38161],[107.27267,16.38269],[107.27601,16.38328],[107.27893,16.3806],[107.28255,16.37993],[107.28163,16.37916],[107.28185,16.37826],[107.28293,16.37777],[107.28303,16.37665],[107.284,16.37717],[107.28526,16.37525],[107.2871,16.37531],[107.28939,16.37714],[107.29228,16.3758],[107.29365,16.3742],[107.29443,16.37494],[107.29668,16.37451],[107.29753,16.37486],[107.29819,16.37414],[107.30323,16.37253],[107.30562,16.37226],[107.30803,16.36914],[107.31019,16.36869],[107.3141,16.36556],[107.31614,16.36124],[107.31673,16.36057],[107.31759,16.3605],[107.32069,16.3572],[107.32368,16.35498],[107.32478,16.35462],[107.32662,16.35505],[107.32758,16.35478],[107.32907,16.35335],[107.33032,16.35049],[107.33299,16.35037],[107.33422,16.35177],[107.33738,16.3532],[107.33805,16.35438],[107.33722,16.3562],[107.33799,16.35785],[107.33779,16.35841],[107.33538,16.3588],[107.33454,16.3621],[107.32901,16.36599],[107.32917,16.3668],[107.33105,16.36762],[107.33151,16.36905],[107.33362,16.36895],[107.33458,16.36942],[107.33439,16.37092],[107.3354,16.37362],[107.33499,16.37418],[107.33297,16.37485],[107.333,16.37587],[107.33614,16.37654],[107.33594,16.37819],[107.33783,16.37943],[107.33934,16.37888],[107.34034,16.3765],[107.34152,16.37656],[107.34192,16.3797],[107.34503,16.37944],[107.34674,16.38045],[107.34905,16.38041],[107.35258,16.38352],[107.35577,16.38395],[107.36064,16.38619],[107.36147,16.38704],[107.3608,16.38872],[107.35817,16.38894],[107.35739,16.38967],[107.35653,16.39252],[107.35576,16.40139],[107.35516,16.40203],[107.35309,16.40239],[107.3525,16.40304],[107.35237,16.40375],[107.35347,16.40572],[107.35461,16.40541],[107.35568,16.40391],[107.35911,16.40149],[107.36223,16.40115],[107.36409,16.40266],[107.36581,16.40192],[107.36644,16.40215],[107.36754,16.40358],[107.36844,16.40808],[107.37697,16.40942],[107.37989,16.41609],[107.38137,16.41683],[107.38535,16.42122],[107.38771,16.42088],[107.38829,16.41938],[107.38878,16.41918],[107.38965,16.4192],[107.39229,16.42096],[107.39303,16.42196],[107.39257,16.42312],[107.39181,16.42318],[107.39155,16.42382],[107.39219,16.42627],[107.39334,16.4276],[107.3947,16.42784],[107.39577,16.42911],[107.39571,16.43143],[107.39463,16.43593],[107.39509,16.43767],[107.39966,16.4382],[107.40128,16.43704],[107.40299,16.43664],[107.40317,16.43548],[107.40249,16.43316],[107.40303,16.4306],[107.40488,16.42958],[107.40568,16.42988],[107.40644,16.43186],[107.40633,16.43376],[107.4055,16.43541],[107.40594,16.43722],[107.40658,16.4389],[107.40777,16.44006],[107.40963,16.44012],[107.41114,16.43915],[107.41215,16.43721],[107.41293,16.43399],[107.41438,16.43267],[107.41564,16.43226],[107.41788,16.43432],[107.41489,16.4392],[107.4143,16.44133],[107.41525,16.45027],[107.41754,16.45152],[107.41906,16.45118],[107.42042,16.45147],[107.4244,16.45373],[107.42283,16.45821],[107.42291,16.45907],[107.42411,16.46124],[107.426,16.46266],[107.43021,16.46433],[107.43143,16.4684],[107.43436,16.46892],[107.44068,16.4719],[107.43976,16.47756],[107.43911,16.47894],[107.43516,16.47992],[107.43407,16.48072],[107.43631,16.49421],[107.43595,16.50266],[107.43651,16.50699],[107.43922,16.51218],[107.44426,16.51967],[107.44267,16.52695],[107.44281,16.53236],[107.45226,16.54167],[107.45725,16.54531],[107.4601,16.54618],[107.45717,16.55019],[107.45681,16.55291],[107.46172,16.55238],[107.46173,16.55378],[107.4629,16.55258],[107.46397,16.55036],[107.4657,16.54987],[107.46968,16.54978],[107.47049,16.55179],[107.47069,16.55395],[107.47003,16.55599],[107.47178,16.55937],[107.47258,16.56477],[107.47003,16.56532],[107.4691,16.56821],[107.46811,16.56949],[107.46644,16.56998],[107.46503,16.5711],[107.46308,16.57134],[107.46083,16.57265],[107.46086,16.57493],[107.46169,16.57522],[107.46253,16.5747],[107.46483,16.576],[107.46374,16.57811],[107.46281,16.5839],[107.45771,16.58896],[107.46101,16.5961],[107.45278,16.59764],[107.44095,16.60065],[107.43814,16.60165],[107.43768,16.60221],[107.43069,16.60419],[107.42823,16.60579],[107.41642,16.61014],[107.41592,16.61045],[107.41757,16.61363],[107.40899,16.61693],[107.40906,16.63073],[107.40808,16.63844],[107.41237,16.64056],[107.41318,16.64236],[107.41599,16.64574],[107.41568,16.64606],[107.4189,16.65013],[107.416,16.65165],[107.41527,16.65255],[107.4156,16.65413],[107.41747,16.65737],[107.41777,16.66227],[107.41863,16.66285],[107.42059,16.66115],[107.42688,16.66111],[107.4257,16.66373],[107.42746,16.6651],[107.43029,16.66222],[107.43098,16.66003],[107.43381,16.65623],[107.43496,16.65759],[107.43544,16.65984],[107.43598,16.65999],[107.43793,16.65884],[107.43878,16.6594],[107.44014,16.65932],[107.44471,16.65732],[107.44458,16.64801],[107.45667,16.64696],[107.47856,16.63022],[107.48755,16.62568],[107.49659,16.63527],[107.49691,16.63664],[107.49913,16.63875],[107.49792,16.64058],[107.50242,16.64558],[107.50102,16.64675],[107.50481,16.6518],[107.50337,16.6522],[107.50139,16.6537],[107.49757,16.65757],[107.49578,16.65831],[107.47916,16.67201],[107.4735,16.67609],[107.45711,16.69016],[107.44923,16.69558],[107.43933,16.70372],[107.43775,16.70445],[107.41115,16.72655],[107.39548,16.73795],[107.39109,16.74164],[107.38907,16.74261],[107.38641,16.74062],[107.38488,16.74012],[107.38332,16.74073],[107.36931,16.73324],[107.36311,16.7216],[107.35577,16.70978],[107.35449,16.71064],[107.35272,16.70791],[107.35156,16.70887],[107.35113,16.70831],[107.35342,16.70544],[107.35488,16.70578],[107.35867,16.70311],[107.35775,16.70039],[107.35814,16.6986],[107.35308,16.69836],[107.35013,16.69676],[107.34871,16.69495],[107.34776,16.69243],[107.34352,16.69082],[107.34142,16.68706],[107.33903,16.68498],[107.33685,16.68406],[107.33584,16.68112],[107.33397,16.67921],[107.33357,16.67554],[107.33117,16.67357],[107.32649,16.67179],[107.32393,16.66989],[107.32413,16.66897],[107.32543,16.66832],[107.32836,16.66907],[107.33136,16.66789],[107.33025,16.66605],[107.32856,16.66532],[107.32266,16.66513],[107.32056,16.66284],[107.31829,16.66229],[107.31902,16.65936],[107.32216,16.65652],[107.32427,16.65699],[107.32487,16.65596],[107.32483,16.65472],[107.32668,16.65307],[107.32872,16.64999],[107.32952,16.646],[107.33022,16.6451],[107.32876,16.64373],[107.32891,16.64255],[107.32535,16.64249],[107.32493,16.64442],[107.32517,16.64836],[107.32322,16.65167],[107.32287,16.65369],[107.3221,16.65383],[107.32132,16.65287],[107.31831,16.65238],[107.31725,16.65176],[107.31465,16.64835],[107.30695,16.64072],[107.30687,16.63889],[107.3077,16.63731],[107.30923,16.63592],[107.31158,16.63539],[107.31306,16.63613],[107.31327,16.63806],[107.31465,16.63774],[107.31485,16.64015],[107.31538,16.64035],[107.31589,16.63831],[107.31015,16.62538],[107.3115,16.62399],[107.31929,16.62117],[107.3207,16.62008],[107.32219,16.61819],[107.32351,16.61386],[107.32855,16.60803],[107.32485,16.605],[107.32864,16.60254],[107.33117,16.60232],[107.33129,16.6017],[107.33401,16.59964],[107.33446,16.59877],[107.33329,16.59823],[107.33029,16.59945],[107.32923,16.59897],[107.32715,16.59909],[107.32719,16.59868],[107.32591,16.59834],[107.32427,16.59834],[107.32454,16.59717],[107.32405,16.59563],[107.32437,16.59508],[107.32403,16.59187],[107.32527,16.59098],[107.32547,16.59018],[107.32682,16.58958],[107.32599,16.58944],[107.32593,16.58888],[107.32658,16.58629],[107.32483,16.58568],[107.32413,16.58594],[107.32298,16.58497],[107.32295,16.58375],[107.31908,16.58306],[107.31788,16.58234],[107.31677,16.58056],[107.31485,16.58081],[107.31379,16.58011],[107.31357,16.57937],[107.31275,16.57931],[107.30997,16.58189],[107.30314,16.58391],[107.30271,16.58685],[107.30155,16.58653],[107.29731,16.58275],[107.29737,16.58205],[107.29295,16.58067],[107.29105,16.58059],[107.29029,16.57986],[107.29048,16.5785],[107.28907,16.57827],[107.28842,16.57674],[107.28695,16.57528],[107.28326,16.57535],[107.28153,16.57367],[107.28134,16.57233],[107.28039,16.57269],[107.279,16.57167],[107.27815,16.57171],[107.27735,16.57266],[107.27674,16.57256],[107.2765,16.57156],[107.27555,16.57095],[107.27527,16.57012],[107.27135,16.56666],[107.27127,16.56555],[107.27007,16.56725],[107.26809,16.56763],[107.26696,16.56989],[107.26496,16.57133],[107.25538,16.57385],[107.25385,16.57522],[107.25334,16.57714],[107.25182,16.57674],[107.25092,16.57701],[107.24908,16.57896],[107.24924,16.58011],[107.24712,16.58196],[107.24817,16.58336],[107.24787,16.58535],[107.24538,16.58684],[107.24476,16.58775],[107.24413,16.58646],[107.24214,16.58464],[107.24056,16.58407],[107.23918,16.58222],[107.23773,16.58225],[107.23697,16.58274],[107.23495,16.58225],[107.23384,16.58147],[107.23321,16.58183],[107.23258,16.58147],[107.23024,16.58176],[107.22846,16.57922],[107.22359,16.58032],[107.22223,16.58006],[107.22168,16.57898],[107.21697,16.57808],[107.21604,16.57894],[107.21603,16.57965],[107.21414,16.57989],[107.21144,16.5785],[107.20898,16.57917],[107.20622,16.5788],[107.20344,16.58095],[107.20353,16.58149],[107.20262,16.58274],[107.19805,16.58143],[107.19531,16.58185],[107.19344,16.58006],[107.18917,16.57916],[107.18751,16.57904],[107.18611,16.58003],[107.18477,16.57987],[107.18406,16.58046],[107.18279,16.57991],[107.18257,16.57853],[107.18157,16.57919],[107.18098,16.57828],[107.17837,16.57648],[107.17609,16.57736],[107.17569,16.57834],[107.17437,16.57815],[107.17383,16.57862],[107.17174,16.57804],[107.16949,16.57875],[107.16887,16.57804],[107.16517,16.57731],[107.16502,16.57659],[107.16323,16.57552],[107.16152,16.57554],[107.1606,16.57466],[107.15708,16.57312],[107.15417,16.57505],[107.15045,16.57412],[107.14876,16.57292],[107.14454,16.5715],[107.14083,16.57187],[107.13787,16.56991],[107.13702,16.56854],[107.13203,16.56722],[107.12973,16.56558],[107.12823,16.56571],[107.12585,16.56387],[107.12316,16.56068],[107.12448,16.55794],[107.12337,16.5572],[107.12231,16.55524],[107.12152,16.55195],[107.11519,16.55256],[107.11372,16.55078],[107.11106,16.55142],[107.10947,16.55072],[107.10173,16.55272],[107.09742,16.55042],[107.09493,16.55015],[107.09212,16.55064],[107.09014,16.54881],[107.0884,16.54809],[107.08948,16.54744],[107.08715,16.5457],[107.08384,16.54645],[107.08132,16.54586],[107.07992,16.54644],[107.07929,16.54575],[107.07679,16.54626],[107.07625,16.54567],[107.07615,16.54401],[107.07447,16.54238],[107.07193,16.54354],[107.06778,16.54393],[107.06492,16.54462],[107.06291,16.54572],[107.06126,16.54582],[107.06095,16.54438],[107.06022,16.54372],[107.06014,16.5423],[107.06142,16.54014],[107.06092,16.53848],[107.06237,16.5369],[107.06012,16.533],[107.05961,16.53034],[107.05792,16.52911],[107.05784,16.52773],[107.05674,16.52527],[107.05548,16.52423]]]}},{"type":"Feature","properties":{"id":"thanh-ha","anchor":[107.5648,16.54949],"km2":10.84},"geometry":{"type":"Polygon","coordinates":[[[107.54309,16.54294],[107.5434,16.54239],[107.54461,16.54226],[107.54313,16.5378],[107.54546,16.53491],[107.54603,16.53328],[107.54837,16.53297],[107.55063,16.53178],[107.555,16.52564],[107.55682,16.52552],[107.55831,16.52667],[107.55942,16.52514],[107.56047,16.52515],[107.56212,16.52314],[107.56232,16.52255],[107.56177,16.52222],[107.56235,16.52262],[107.56116,16.52445],[107.56055,16.52514],[107.55946,16.52514],[107.55839,16.52668],[107.56042,16.53018],[107.5617,16.53035],[107.56407,16.52891],[107.56641,16.52833],[107.57123,16.52936],[107.57151,16.53103],[107.56912,16.53282],[107.56904,16.53379],[107.57116,16.53588],[107.57084,16.53746],[107.57537,16.54467],[107.57521,16.54711],[107.57959,16.55468],[107.5798,16.55716],[107.57887,16.56092],[107.58116,16.56147],[107.58266,16.56264],[107.58276,16.56363],[107.58262,16.56688],[107.57882,16.57273],[107.57921,16.57321],[107.57872,16.57418],[107.57191,16.58293],[107.56418,16.58648],[107.56672,16.58231],[107.57022,16.5703],[107.57222,16.56627],[107.57613,16.56079],[107.56643,16.55537],[107.56488,16.55357],[107.56307,16.55271],[107.56086,16.55759],[107.55608,16.55613],[107.55411,16.55664],[107.55238,16.55338],[107.5516,16.55001],[107.55664,16.54839],[107.55337,16.54464],[107.55178,16.54561],[107.55126,16.54421],[107.54955,16.54418],[107.54727,16.54312],[107.5453,16.54344],[107.54399,16.54451],[107.54309,16.54294]]]}},{"type":"Feature","properties":{"id":"loc-son"},"geometry":{"type":"Point","coordinates":[107.73955,16.34667]}},{"type":"Feature","properties":{"id":"sia"},"geometry":{"type":"Point","coordinates":[107.51427,16.57493]}},{"type":"Feature","properties":{"id":"phu-da"},"geometry":{"type":"Point","coordinates":[107.71534,16.43986]}},{"type":"Feature","properties":{"id":"phu-loc"},"geometry":{"type":"Point","coordinates":[107.85898,16.28035]}},{"type":"Feature","properties":{"id":"lang-co"},"geometry":{"type":"Point","coordinates":[108.07804,16.24089]}},{"type":"Feature","properties":{"id":"khe-tre"},"geometry":{"type":"Point","coordinates":[107.71849,16.16842]}},{"type":"Feature","properties":{"id":"a-luoi"},"geometry":{"type":"Point","coordinates":[107.23075,16.27221]}},{"type":"Feature","properties":{"id":"vinh-hien"},"geometry":{"type":"Point","coordinates":[107.89586,16.34744]}},{"type":"Feature","properties":{"id":"vinh-thanh","approx":true},"geometry":{"type":"Point","coordinates":[107.78461,16.43324]}}]}