{"type":"FeatureCollection","source":"WebGIS gServer sở ngành Huế, bản đồ 19533, lớp Xã, phường, thị trấn (bl_xaphuong), địa giới trước 2020; tải ngày 2026-10-10","features":[{"type":"Feature","properties":{"id":"loc-son","objectid":122,"maxa":"20131","mahuyen":"482","ten":"Xã Lộc Sơn"},"geometry":{"type":"Polygon","coordinates":[[[107.758912,16.350604],[107.757705,16.351428],[107.757635,16.352609],[107.757516,16.353378],[107.756983,16.354766],[107.756143,16.356151],[107.755157,16.357217],[107.753525,16.358482],[107.75244,16.359415],[107.75136,16.359367],[107.749,16.359359],[107.748143,16.359413],[107.745497,16.356684],[107.744727,16.356802],[107.744465,16.356901],[107.743994,16.356874],[107.743871,16.356821],[107.742944,16.356806],[107.74276,16.356729],[107.741938,16.356855],[107.741838,16.356835],[107.741732,16.35672],[107.741409,16.356555],[107.740979,16.356232],[107.740213,16.355591],[107.740227,16.355501],[107.738847,16.354646],[107.738066,16.354011],[107.737927,16.353799],[107.737584,16.353655],[107.737899,16.352685],[107.736742,16.352274],[107.73801,16.347464],[107.73797,16.347436],[107.738141,16.346429],[107.738077,16.346068],[107.737899,16.345749],[107.737704,16.345225],[107.73756,16.345027],[107.737346,16.34496],[107.737229,16.344798],[107.737038,16.344206],[107.736876,16.342731],[107.736679,16.342442],[107.736169,16.342109],[107.735084,16.341165],[107.734717,16.340952],[107.733609,16.339692],[107.733387,16.339546],[107.733374,16.339342],[107.733245,16.339093],[107.732671,16.338358],[107.732417,16.337882],[107.732371,16.337467],[107.732059,16.336827],[107.731692,16.336371],[107.730992,16.335751],[107.730653,16.334512],[107.730944,16.333478],[107.731092,16.3333],[107.731284,16.332834],[107.731253,16.332212],[107.73127,16.332129],[107.731385,16.332017],[107.731482,16.33168],[107.731479,16.331036],[107.731531,16.330734],[107.731475,16.329931],[107.731162,16.329412],[107.731099,16.329176],[107.731208,16.328634],[107.731338,16.32827],[107.731532,16.327948],[107.731469,16.327569],[107.73148,16.327272],[107.731565,16.327021],[107.731513,16.326789],[107.731544,16.326405],[107.731259,16.325898],[107.731228,16.325748],[107.731389,16.324662],[107.731239,16.324335],[107.731291,16.324198],[107.731422,16.324062],[107.73144,16.32394],[107.731393,16.3238],[107.731224,16.323722],[107.731174,16.323627],[107.731239,16.323449],[107.731501,16.323327],[107.731506,16.323178],[107.731366,16.322865],[107.731241,16.322735],[107.73079,16.322815],[107.730569,16.322612],[107.730413,16.322604],[107.729923,16.322214],[107.729811,16.321866],[107.729614,16.321739],[107.72937,16.321476],[107.729151,16.321377],[107.728905,16.321058],[107.728639,16.321054],[107.728236,16.320686],[107.728112,16.320538],[107.728183,16.320298],[107.728164,16.320143],[107.727661,16.319394],[107.72728,16.319074],[107.726513,16.318602],[107.726455,16.318403],[107.726359,16.318398],[107.725538,16.317277],[107.723537,16.315527],[107.723447,16.315493],[107.723243,16.315141],[107.722998,16.314552],[107.722474,16.314214],[107.722343,16.314047],[107.721977,16.313792],[107.721748,16.313284],[107.721665,16.312671],[107.721108,16.311973],[107.721049,16.311574],[107.720875,16.311481],[107.720264,16.31136],[107.7199,16.311112],[107.719698,16.310848],[107.719645,16.310705],[107.719694,16.310038],[107.719342,16.309265],[107.719183,16.308414],[107.718819,16.304658],[107.718636,16.304183],[107.718478,16.303917],[107.717759,16.303053],[107.717472,16.302567],[107.717388,16.302208],[107.717459,16.301175],[107.717364,16.300823],[107.716855,16.30015],[107.715212,16.298218],[107.714843,16.297478],[107.714641,16.296697],[107.714321,16.29606],[107.714194,16.295918],[107.71303,16.295028],[107.712895,16.29487],[107.712714,16.294521],[107.712646,16.294106],[107.713005,16.291204],[107.713008,16.290349],[107.712805,16.289364],[107.712369,16.287893],[107.712281,16.287723],[107.712161,16.287612],[107.711792,16.287539],[107.711742,16.287397],[107.7116,16.287253],[107.711689,16.286907],[107.71198,16.286864],[107.712083,16.286933],[107.71221,16.286943],[107.712569,16.28681],[107.71272,16.286715],[107.712884,16.286474],[107.713104,16.286288],[107.713552,16.28633],[107.71386,16.286455],[107.714427,16.286352],[107.714555,16.286394],[107.714777,16.286607],[107.715006,16.286551],[107.715107,16.286572],[107.715397,16.286888],[107.715399,16.28694],[107.715268,16.286998],[107.715262,16.287049],[107.715332,16.287331],[107.715461,16.287438],[107.715608,16.287468],[107.715837,16.287426],[107.715941,16.287515],[107.71612,16.287551],[107.716378,16.2878],[107.716581,16.287868],[107.716768,16.287865],[107.716977,16.287727],[107.717098,16.287716],[107.717273,16.287791],[107.7175,16.288009],[107.717681,16.28803],[107.71782,16.287956],[107.717892,16.287985],[107.718067,16.288327],[107.718023,16.288808],[107.718125,16.28936],[107.718286,16.28974],[107.718411,16.289796],[107.718737,16.289775],[107.718849,16.289673],[107.718905,16.289428],[107.718729,16.289321],[107.718696,16.289218],[107.718782,16.289056],[107.71907,16.289114],[107.719611,16.28897],[107.720163,16.289017],[107.72086,16.288885],[107.72088,16.288486],[107.720786,16.288282],[107.720805,16.28817],[107.720892,16.288082],[107.721209,16.287926],[107.721414,16.287706],[107.721774,16.287449],[107.721907,16.28744],[107.722433,16.287602],[107.722575,16.287492],[107.722655,16.287277],[107.72301,16.287277],[107.723686,16.287867],[107.723855,16.28791],[107.724012,16.287846],[107.724146,16.287665],[107.724163,16.287307],[107.724644,16.286918],[107.724849,16.287166],[107.72475,16.287497],[107.724892,16.287576],[107.724912,16.287656],[107.725197,16.287611],[107.725408,16.287387],[107.72552,16.287372],[107.725613,16.287523],[107.725704,16.28786],[107.725724,16.288193],[107.725905,16.28832],[107.726255,16.288376],[107.7263,16.288459],[107.726178,16.288756],[107.726195,16.288969],[107.72607,16.289547],[107.725914,16.289916],[107.725925,16.290115],[107.726142,16.290419],[107.726654,16.290823],[107.726731,16.290967],[107.726884,16.291647],[107.727002,16.291816],[107.727112,16.291807],[107.727526,16.29159],[107.728101,16.291586],[107.728216,16.291666],[107.728401,16.29197],[107.728662,16.292238],[107.729375,16.292448],[107.729708,16.292694],[107.729865,16.292756],[107.731194,16.292983],[107.73186,16.29302],[107.732957,16.294033],[107.733185,16.294337],[107.733479,16.2946],[107.735428,16.295688],[107.736447,16.296391],[107.736686,16.296622],[107.736662,16.296744],[107.736864,16.296982],[107.736873,16.297166],[107.737045,16.297179],[107.737178,16.297259],[107.737477,16.297268],[107.737815,16.297579],[107.737883,16.297723],[107.73789,16.297881],[107.737814,16.298106],[107.737955,16.298406],[107.737868,16.298896],[107.738088,16.29917],[107.738083,16.299457],[107.738142,16.299602],[107.738074,16.299845],[107.73809,16.299994],[107.737978,16.300307],[107.738077,16.301063],[107.738382,16.301308],[107.738644,16.301354],[107.738654,16.301411],[107.738825,16.301539],[107.738814,16.301616],[107.738895,16.301665],[107.738878,16.301783],[107.738999,16.302012],[107.73899,16.30222],[107.739066,16.302279],[107.739208,16.302584],[107.739388,16.302782],[107.739369,16.303101],[107.739782,16.303352],[107.739834,16.303418],[107.739839,16.303544],[107.739885,16.303496],[107.739892,16.303246],[107.740052,16.303137],[107.740098,16.303208],[107.740047,16.303256],[107.740055,16.303416],[107.740103,16.303494],[107.740522,16.30352],[107.740863,16.303851],[107.741131,16.304264],[107.741097,16.30434],[107.740805,16.304551],[107.740801,16.304615],[107.740977,16.304874],[107.740819,16.305184],[107.740774,16.305593],[107.74069,16.305633],[107.740389,16.305635],[107.740299,16.30568],[107.74028,16.305748],[107.74039,16.305883],[107.740676,16.305968],[107.741044,16.306427],[107.741292,16.306469],[107.74136,16.306531],[107.741338,16.306696],[107.741156,16.306963],[107.741262,16.307259],[107.741146,16.307499],[107.741293,16.307498],[107.741407,16.307729],[107.741531,16.307819],[107.741432,16.308066],[107.741281,16.308002],[107.741275,16.30822],[107.741461,16.308382],[107.741383,16.308687],[107.741263,16.30876],[107.74127,16.308829],[107.741635,16.308951],[107.742345,16.309013],[107.7426,16.309091],[107.742968,16.308981],[107.743077,16.309193],[107.743196,16.309219],[107.743335,16.309342],[107.743546,16.309289],[107.74388,16.309538],[107.744162,16.309652],[107.744222,16.309735],[107.744291,16.310256],[107.744414,16.310433],[107.744743,16.310383],[107.745007,16.310235],[107.745123,16.310034],[107.745442,16.309898],[107.745553,16.309702],[107.74571,16.309617],[107.745881,16.30966],[107.746025,16.309832],[107.746215,16.309758],[107.746457,16.309801],[107.746634,16.309975],[107.746782,16.310245],[107.74716,16.310241],[107.747534,16.310342],[107.747605,16.310292],[107.747583,16.310206],[107.747331,16.309948],[107.747333,16.309832],[107.747644,16.309722],[107.748188,16.30962],[107.748371,16.309622],[107.748825,16.309769],[107.749187,16.310108],[107.749451,16.31002],[107.749535,16.30994],[107.74967,16.309987],[107.749696,16.31003],[107.749626,16.310239],[107.749869,16.310465],[107.749902,16.310568],[107.749402,16.311066],[107.749498,16.311269],[107.749349,16.311503],[107.749398,16.311939],[107.749367,16.312087],[107.749253,16.312121],[107.749053,16.311943],[107.748969,16.311949],[107.748822,16.312323],[107.748635,16.312628],[107.748841,16.312797],[107.748881,16.313106],[107.748795,16.313295],[107.748809,16.313372],[107.749086,16.313539],[107.749037,16.313731],[107.749106,16.313911],[107.749366,16.313965],[107.74912,16.314134],[107.749124,16.314267],[107.749238,16.314511],[107.748921,16.315083],[107.749204,16.315403],[107.749612,16.315674],[107.749774,16.316153],[107.749634,16.31647],[107.749667,16.316563],[107.750026,16.316592],[107.750436,16.316973],[107.750555,16.317007],[107.750706,16.316936],[107.750771,16.316793],[107.751026,16.316618],[107.751079,16.316704],[107.751011,16.316756],[107.751026,16.316824],[107.750849,16.3169],[107.750813,16.317044],[107.750584,16.317145],[107.750575,16.317186],[107.750754,16.317354],[107.750994,16.31741],[107.751071,16.317491],[107.751085,16.317626],[107.751202,16.317726],[107.751674,16.317828],[107.752123,16.317769],[107.753486,16.318064],[107.753677,16.318],[107.753767,16.317742],[107.753948,16.317731],[107.753993,16.317833],[107.753949,16.318331],[107.754249,16.318522],[107.754681,16.318485],[107.754867,16.31898],[107.755044,16.319183],[107.755133,16.319169],[107.755276,16.318935],[107.755454,16.318786],[107.755736,16.318786],[107.755874,16.318879],[107.756023,16.319088],[107.756232,16.319744],[107.756647,16.320323],[107.757041,16.320649],[107.757253,16.321085],[107.757426,16.321289],[107.757798,16.321561],[107.75856,16.32154],[107.758789,16.321698],[107.759017,16.322397],[107.759039,16.322605],[107.758971,16.323054],[107.758748,16.323519],[107.758166,16.324094],[107.757921,16.324421],[107.757658,16.324497],[107.757363,16.324716],[107.757073,16.324823],[107.75668,16.324524],[107.756389,16.324714],[107.756089,16.325062],[107.756112,16.32546],[107.756446,16.326426],[107.75656,16.326974],[107.756384,16.328081],[107.75638,16.328453],[107.756182,16.329158],[107.756113,16.329614],[107.756073,16.331365],[107.755928,16.331695],[107.755366,16.332612],[107.755099,16.333271],[107.754547,16.335408],[107.754496,16.335794],[107.754466,16.337413],[107.754252,16.338995],[107.755931,16.339752],[107.758806,16.341176],[107.759588,16.341901],[107.759907,16.34234],[107.760025,16.342731],[107.760027,16.34305],[107.759518,16.344975],[107.759519,16.345813],[107.759644,16.347775],[107.759441,16.350084],[107.759351,16.350252],[107.758912,16.350604]]]}},{"type":"Feature","properties":{"id":"sia","objectid":44,"maxa":"19867","mahuyen":"477","ten":"Thi trấn Sia"},"geometry":{"type":"Polygon","coordinates":[[[107.522508,16.599416],[107.522493,16.604802],[107.522666,16.611039],[107.517807,16.613058],[107.513739,16.613882],[107.511918,16.614109],[107.510104,16.614144],[107.510068,16.607478],[107.509917,16.603063],[107.509975,16.600193],[107.509699,16.598411],[107.509821,16.598408],[107.509839,16.598195],[107.509872,16.595962],[107.5116,16.596157],[107.512609,16.596377],[107.512745,16.596351],[107.513245,16.593844],[107.508608,16.594921],[107.50526,16.594029],[107.50279,16.593451],[107.501973,16.59332],[107.502048,16.592926],[107.502067,16.592343],[107.50171,16.59244],[107.499744,16.592492],[107.499285,16.592753],[107.498357,16.592754],[107.498106,16.59231],[107.498217,16.591099],[107.498073,16.591038],[107.498018,16.591038],[107.497998,16.591111],[107.497962,16.591824],[107.49785,16.592322],[107.497778,16.592428],[107.497502,16.592436],[107.497464,16.592339],[107.497571,16.591732],[107.497634,16.591622],[107.497504,16.591493],[107.497457,16.591218],[107.497481,16.590793],[107.497626,16.590217],[107.497624,16.589764],[107.498384,16.587683],[107.499816,16.584556],[107.495596,16.584089],[107.495756,16.583897],[107.496309,16.582946],[107.496687,16.582132],[107.497295,16.580523],[107.497965,16.579134],[107.498232,16.578145],[107.497687,16.577923],[107.497901,16.577401],[107.498243,16.576759],[107.49753,16.57612],[107.497052,16.575428],[107.497093,16.575214],[107.49728,16.574962],[107.49731,16.574839],[107.49723,16.574316],[107.497257,16.573874],[107.497188,16.572328],[107.497293,16.571993],[107.497666,16.571543],[107.498517,16.570819],[107.499798,16.56947],[107.500024,16.568792],[107.500161,16.568828],[107.500674,16.568774],[107.500613,16.568576],[107.500606,16.567515],[107.500578,16.567462],[107.500456,16.567458],[107.50035,16.567367],[107.500235,16.566627],[107.500229,16.565857],[107.500065,16.565542],[107.499854,16.56545],[107.499799,16.565281],[107.499829,16.56468],[107.500036,16.564447],[107.500168,16.564208],[107.50045,16.563329],[107.500782,16.563419],[107.501327,16.563487],[107.501769,16.563412],[107.502283,16.56355],[107.502954,16.563561],[107.503012,16.563975],[107.503158,16.564328],[107.503534,16.565121],[107.504206,16.566215],[107.505026,16.56611],[107.505539,16.567438],[107.504939,16.567661],[107.505148,16.568185],[107.506163,16.567953],[107.508489,16.567798],[107.508545,16.568248],[107.509392,16.567933],[107.509428,16.567837],[107.509583,16.567696],[107.510087,16.567496],[107.510514,16.567255],[107.510831,16.567133],[107.511297,16.567036],[107.512059,16.56667],[107.513108,16.566424],[107.514535,16.566287],[107.514572,16.564953],[107.514656,16.564152],[107.515525,16.562422],[107.515732,16.561483],[107.515879,16.559969],[107.517052,16.559776],[107.517063,16.559568],[107.516906,16.559286],[107.516127,16.55827],[107.516077,16.558133],[107.516189,16.558046],[107.516744,16.557885],[107.517186,16.557662],[107.517868,16.55754],[107.518242,16.557584],[107.518788,16.55781],[107.519153,16.557866],[107.519237,16.557785],[107.51945,16.557825],[107.51945,16.557951],[107.519816,16.558069],[107.521627,16.558071],[107.522951,16.557897],[107.523009,16.558029],[107.523263,16.558012],[107.524549,16.558274],[107.528095,16.559077],[107.528118,16.559301],[107.527653,16.559425],[107.527387,16.559632],[107.527276,16.55993],[107.52726,16.560312],[107.527134,16.560535],[107.526904,16.560717],[107.526492,16.560868],[107.526337,16.561011],[107.52637,16.561896],[107.5262,16.562777],[107.526171,16.563471],[107.526073,16.563613],[107.525968,16.563629],[107.525723,16.563465],[107.525357,16.56334],[107.52476,16.563232],[107.523646,16.563258],[107.523148,16.563376],[107.522773,16.563663],[107.522175,16.56451],[107.520388,16.566167],[107.519625,16.568],[107.519336,16.569433],[107.519176,16.569904],[107.519205,16.570683],[107.5191,16.571421],[107.518603,16.573463],[107.518319,16.573746],[107.518043,16.574357],[107.517494,16.574789],[107.516968,16.575093],[107.51631,16.575848],[107.516234,16.576764],[107.516681,16.576808],[107.51698,16.576888],[107.517487,16.576752],[107.517609,16.576973],[107.518649,16.577294],[107.519927,16.577581],[107.520629,16.577645],[107.521837,16.577562],[107.521918,16.577825],[107.521982,16.578996],[107.525147,16.578898],[107.525452,16.582385],[107.525423,16.583363],[107.525281,16.58412],[107.527349,16.588561],[107.527893,16.590038],[107.528414,16.591724],[107.526653,16.592606],[107.525758,16.59315],[107.525124,16.593291],[107.525104,16.59393],[107.524994,16.594422],[107.524578,16.595085],[107.524393,16.595232],[107.524365,16.595317],[107.524115,16.595314],[107.524112,16.595264],[107.522512,16.595574],[107.522346,16.595569],[107.522508,16.599416]]]}},{"type":"Feature","properties":{"id":"phu-da","objectid":69,"maxa":"19942","mahuyen":"478","ten":"Thị trấn Phú Đa"},"geometry":{"type":"Polygon","coordinates":[[[107.765797,16.437665],[107.763877,16.440995],[107.762346,16.443318],[107.761422,16.444972],[107.760543,16.446344],[107.760101,16.447169],[107.758941,16.449623],[107.757164,16.453742],[107.756326,16.455462],[107.7553,16.457174],[107.753989,16.459059],[107.75261,16.460749],[107.751827,16.461617],[107.750528,16.462268],[107.743888,16.464821],[107.741561,16.465882],[107.740115,16.46672],[107.737809,16.468696],[107.736274,16.4702],[107.732771,16.467731],[107.731503,16.467184],[107.730994,16.466902],[107.729913,16.465827],[107.729058,16.465085],[107.725417,16.462843],[107.725178,16.462851],[107.724786,16.462945],[107.724571,16.462881],[107.723921,16.461953],[107.722876,16.460735],[107.722774,16.460815],[107.722597,16.460685],[107.721831,16.459889],[107.721447,16.459417],[107.720583,16.458641],[107.720414,16.458332],[107.720037,16.458081],[107.719805,16.457798],[107.719515,16.457583],[107.719215,16.457418],[107.718976,16.45745],[107.718466,16.457645],[107.718411,16.457734],[107.718191,16.457835],[107.718065,16.457949],[107.717934,16.457973],[107.717855,16.458055],[107.717115,16.457779],[107.716165,16.457092],[107.715406,16.456718],[107.715316,16.456456],[107.715417,16.456205],[107.714981,16.455879],[107.714362,16.455522],[107.714036,16.455968],[107.713206,16.455496],[107.713011,16.454941],[107.713141,16.454884],[107.710501,16.448697],[107.710122,16.448814],[107.709801,16.449049],[107.709646,16.449102],[107.709504,16.449078],[107.709386,16.448988],[107.709179,16.448996],[107.709085,16.448887],[107.707788,16.449278],[107.707126,16.44909],[107.706982,16.450156],[107.705468,16.449697],[107.705515,16.448492],[107.705135,16.447247],[107.705017,16.446509],[107.70501,16.446364],[107.705105,16.446327],[107.70489,16.444185],[107.704962,16.443786],[107.704735,16.443799],[107.7048,16.442206],[107.704912,16.44117],[107.704864,16.439407],[107.704745,16.438807],[107.704682,16.438055],[107.703962,16.438087],[107.703973,16.437798],[107.703852,16.437802],[107.703777,16.436701],[107.703529,16.434911],[107.705916,16.434356],[107.706614,16.434102],[107.708019,16.43333],[107.708661,16.432912],[107.709841,16.432014],[107.711071,16.430855],[107.711743,16.430031],[107.711978,16.42963],[107.712179,16.429139],[107.71246,16.427963],[107.712457,16.427327],[107.712261,16.424831],[107.712326,16.42377],[107.712405,16.423308],[107.712592,16.422658],[107.713073,16.421481],[107.713702,16.42038],[107.714275,16.419653],[107.716347,16.417949],[107.717568,16.417149],[107.719532,16.416124],[107.720576,16.415648],[107.724196,16.41425],[107.727152,16.412894],[107.728088,16.412382],[107.730993,16.410511],[107.731808,16.409784],[107.732522,16.40879],[107.733138,16.407414],[107.733765,16.405231],[107.734408,16.402355],[107.735591,16.402685],[107.737207,16.403239],[107.737194,16.403278],[107.737306,16.403322],[107.738689,16.403808],[107.738768,16.403992],[107.742184,16.405231],[107.743633,16.40569],[107.743578,16.405835],[107.743517,16.406473],[107.743543,16.406661],[107.743439,16.407196],[107.743078,16.407978],[107.74286,16.408339],[107.742791,16.408681],[107.742587,16.409161],[107.742188,16.409801],[107.741504,16.410312],[107.741251,16.410695],[107.74118,16.410997],[107.74092,16.411253],[107.740591,16.41177],[107.740611,16.411938],[107.74111,16.41248],[107.741172,16.412891],[107.741044,16.413293],[107.740803,16.413654],[107.740246,16.414254],[107.739818,16.414519],[107.739101,16.414825],[107.7388,16.415145],[107.738777,16.415256],[107.738829,16.415459],[107.739169,16.416107],[107.739324,16.417157],[107.739444,16.417319],[107.740363,16.417848],[107.74141,16.418237],[107.742013,16.418304],[107.74306,16.418151],[107.744368,16.418229],[107.745887,16.418392],[107.74638,16.418574],[107.746635,16.41811],[107.746996,16.417196],[107.749787,16.412652],[107.750124,16.412901],[107.750301,16.412953],[107.75057,16.412987],[107.750884,16.412912],[107.750905,16.413044],[107.751026,16.413105],[107.751107,16.413225],[107.751443,16.415368],[107.751903,16.41537],[107.75168,16.417289],[107.753004,16.417274],[107.753694,16.417191],[107.754479,16.417181],[107.754825,16.417619],[107.754895,16.417817],[107.755436,16.418179],[107.75579,16.418216],[107.756259,16.41804],[107.756157,16.417819],[107.756245,16.417679],[107.756238,16.417547],[107.756408,16.417399],[107.756475,16.417272],[107.756752,16.41733],[107.756782,16.416879],[107.757342,16.417106],[107.757815,16.416584],[107.758083,16.416433],[107.758808,16.416394],[107.759311,16.416458],[107.759688,16.416623],[107.759954,16.416872],[107.760558,16.417746],[107.761119,16.418225],[107.761462,16.418179],[107.761782,16.418237],[107.762019,16.41857],[107.76208,16.418759],[107.762316,16.419049],[107.762651,16.418903],[107.762807,16.418914],[107.763575,16.419873],[107.766965,16.42147],[107.766936,16.421549],[107.767299,16.421807],[107.768069,16.422491],[107.765864,16.424395],[107.764138,16.425286],[107.763248,16.425999],[107.762748,16.426449],[107.761121,16.428234],[107.758823,16.430602],[107.758498,16.43084],[107.759407,16.431419],[107.762131,16.433302],[107.762926,16.433727],[107.765924,16.436481],[107.766207,16.436831],[107.765797,16.437665]]]}},{"type":"Feature","properties":{"id":"phu-loc","objectid":115,"maxa":"20107","mahuyen":"482","ten":"TT Phú Lộc"},"geometry":{"type":"Polygon","coordinates":[[[107.845575,16.329214],[107.839612,16.331486],[107.839867,16.31148],[107.841536,16.290763],[107.840263,16.288339],[107.840031,16.287992],[107.839929,16.287627],[107.839749,16.287405],[107.839626,16.286785],[107.839649,16.286743],[107.840711,16.286652],[107.841503,16.286467],[107.841465,16.286302],[107.841597,16.286108],[107.842102,16.28579],[107.842139,16.285491],[107.842248,16.285313],[107.842638,16.285023],[107.842756,16.284788],[107.843221,16.284497],[107.843306,16.284228],[107.843443,16.284122],[107.843621,16.284031],[107.844445,16.283884],[107.849283,16.280627],[107.849477,16.280098],[107.849883,16.279268],[107.850253,16.277923],[107.850557,16.277122],[107.850825,16.277003],[107.850931,16.276892],[107.851243,16.27595],[107.851394,16.275656],[107.851551,16.275157],[107.851642,16.274675],[107.851794,16.274364],[107.851917,16.273949],[107.851979,16.273816],[107.852338,16.273448],[107.852462,16.273236],[107.852628,16.272766],[107.852826,16.271963],[107.852908,16.271299],[107.853221,16.270912],[107.853577,16.270277],[107.85378,16.270057],[107.853918,16.269813],[107.854498,16.268249],[107.855228,16.267508],[107.855334,16.267301],[107.855507,16.266751],[107.85558,16.26584],[107.855839,16.264899],[107.855436,16.263877],[107.855271,16.262868],[107.854158,16.26051],[107.854384,16.260128],[107.854855,16.258235],[107.85523,16.257065],[107.855225,16.256805],[107.855163,16.256597],[107.855077,16.256419],[107.85478,16.256181],[107.853627,16.255811],[107.852376,16.255144],[107.852968,16.254011],[107.853598,16.253585],[107.854839,16.253054],[107.855289,16.25253],[107.85615,16.25171],[107.85631,16.251493],[107.856786,16.250472],[107.856983,16.249889],[107.857178,16.24898],[107.857198,16.248601],[107.85736,16.248215],[107.857363,16.247937],[107.857125,16.247588],[107.857105,16.247331],[107.857145,16.246926],[107.85728,16.24668],[107.857306,16.24633],[107.857512,16.245638],[107.857775,16.245285],[107.857975,16.245169],[107.858247,16.24506],[107.858735,16.244966],[107.85885,16.244867],[107.858978,16.244564],[107.859121,16.244416],[107.859643,16.243582],[107.859899,16.242947],[107.860269,16.241701],[107.861037,16.240505],[107.86169,16.239069],[107.862082,16.238656],[107.8635,16.236224],[107.863924,16.235762],[107.864327,16.235062],[107.864701,16.234694],[107.86489,16.234331],[107.865536,16.233367],[107.866639,16.232097],[107.867204,16.232692],[107.867389,16.23298],[107.867642,16.233796],[107.868151,16.234257],[107.868263,16.234506],[107.868342,16.235023],[107.86845,16.235163],[107.868654,16.235156],[107.869031,16.235256],[107.869647,16.235074],[107.869786,16.235078],[107.870219,16.235356],[107.870621,16.235421],[107.870885,16.235327],[107.87169,16.23479],[107.871889,16.234783],[107.872013,16.234919],[107.872111,16.235179],[107.872128,16.23563],[107.872395,16.236637],[107.872451,16.237739],[107.872579,16.238523],[107.872581,16.238943],[107.872844,16.2394],[107.872897,16.239768],[107.872978,16.239871],[107.873388,16.239837],[107.873432,16.239756],[107.873355,16.239592],[107.873426,16.23952],[107.873554,16.239534],[107.873959,16.23995],[107.874434,16.240957],[107.874432,16.241171],[107.874349,16.241248],[107.874203,16.241249],[107.873996,16.241137],[107.873808,16.241153],[107.873739,16.241227],[107.873827,16.241839],[107.874454,16.242304],[107.87452,16.242427],[107.874506,16.242742],[107.874396,16.242886],[107.874169,16.243578],[107.874355,16.244166],[107.874288,16.244564],[107.874029,16.24532],[107.874005,16.245605],[107.874131,16.245694],[107.874448,16.245731],[107.874802,16.245272],[107.875127,16.245557],[107.875371,16.24589],[107.875726,16.246587],[107.875806,16.246853],[107.875794,16.247351],[107.875833,16.247603],[107.875926,16.24789],[107.87604,16.248072],[107.876174,16.248169],[107.876824,16.24839],[107.87759,16.24881],[107.878677,16.248848],[107.879434,16.248574],[107.879553,16.248571],[107.879885,16.24879],[107.880131,16.249024],[107.880333,16.249075],[107.880826,16.24909],[107.880972,16.24958],[107.881402,16.249992],[107.882549,16.250643],[107.882599,16.250784],[107.882595,16.251032],[107.88248,16.251331],[107.882426,16.251825],[107.882209,16.252203],[107.881677,16.252469],[107.881409,16.252773],[107.880829,16.254026],[107.880727,16.254587],[107.88113,16.255002],[107.8815,16.255212],[107.881719,16.255304],[107.882376,16.255451],[107.882506,16.255413],[107.882799,16.255158],[107.882867,16.255036],[107.883617,16.255079],[107.884263,16.255038],[107.884418,16.255123],[107.884674,16.255562],[107.884682,16.255708],[107.884669,16.25582],[107.884577,16.25593],[107.884178,16.256159],[107.883954,16.256537],[107.883948,16.256795],[107.884016,16.257175],[107.884156,16.257548],[107.884363,16.257936],[107.884828,16.258527],[107.885504,16.259035],[107.886104,16.259782],[107.886662,16.260292],[107.887153,16.260643],[107.88751,16.261009],[107.887568,16.261138],[107.887588,16.26152],[107.887518,16.262496],[107.887463,16.262675],[107.887189,16.263139],[107.887168,16.263452],[107.88732,16.263718],[107.888117,16.264604],[107.888256,16.264933],[107.888268,16.265187],[107.888156,16.26541],[107.887634,16.265646],[107.887427,16.265809],[107.887104,16.266335],[107.886478,16.266421],[107.886185,16.266656],[107.885868,16.267141],[107.885374,16.268091],[107.884259,16.269373],[107.883978,16.269498],[107.882774,16.269776],[107.882561,16.27011],[107.882484,16.270328],[107.882637,16.271027],[107.882629,16.27158],[107.88247,16.272049],[107.88207,16.272733],[107.881914,16.273211],[107.881332,16.273733],[107.880376,16.274293],[107.879925,16.274725],[107.879813,16.274921],[107.87978,16.275194],[107.879814,16.275402],[107.879991,16.275936],[107.879936,16.276584],[107.879983,16.276919],[107.880499,16.278073],[107.88148,16.279766],[107.881732,16.28023],[107.881728,16.280294],[107.876825,16.291383],[107.866743,16.31148],[107.861762,16.322727],[107.845575,16.329214]]]}},{"type":"Feature","properties":{"id":"lang-co","objectid":143,"maxa":"20110","mahuyen":"482","ten":"TT Lăng Cô"},"geometry":{"type":"Polygon","coordinates":[[[108.06765,16.261571],[108.067035,16.262445],[108.066756,16.262959],[108.065842,16.264268],[108.065049,16.265666],[108.064435,16.266504],[108.064185,16.267013],[108.063777,16.267548],[108.063176,16.26858],[108.062278,16.269807],[108.062118,16.269934],[108.061516,16.271047],[108.060892,16.271774],[108.06058,16.272306],[108.059981,16.273124],[108.05858,16.275363],[108.058091,16.275959],[108.05751,16.277054],[108.056675,16.278359],[108.056388,16.278723],[108.054695,16.281254],[108.054224,16.282072],[108.053484,16.283192],[108.052551,16.284543],[108.052273,16.285076],[108.05123,16.286673],[108.050628,16.287724],[108.04774,16.286974],[108.045827,16.285236],[108.045694,16.285077],[108.045533,16.28475],[108.043491,16.282508],[108.039985,16.281772],[108.040015,16.281554],[108.040114,16.281334],[108.040384,16.280959],[108.040708,16.280638],[108.040741,16.280133],[108.040962,16.279496],[108.041088,16.278892],[108.041148,16.278034],[108.041105,16.277274],[108.041416,16.2763],[108.041455,16.275732],[108.041212,16.275478],[108.041226,16.275059],[108.041015,16.274735],[108.039969,16.273787],[108.039364,16.273451],[108.039251,16.273342],[108.039054,16.27297],[108.038448,16.27273],[108.038324,16.272604],[108.038286,16.272393],[108.038326,16.272046],[108.038095,16.271399],[108.038233,16.271178],[108.038582,16.270299],[108.038869,16.269812],[108.038252,16.269243],[108.037677,16.268325],[108.037158,16.267764],[108.03697,16.267083],[108.036999,16.266473],[108.03709,16.266227],[108.037084,16.266121],[108.036886,16.265782],[108.036716,16.265619],[108.035781,16.265008],[108.034772,16.263949],[108.034404,16.263369],[108.034181,16.263118],[108.033641,16.26292],[108.03339,16.262747],[108.033368,16.262335],[108.033205,16.262118],[108.03251,16.261867],[108.032033,16.261488],[108.031576,16.261447],[108.031384,16.261165],[108.03109,16.261236],[108.030748,16.261223],[108.0302,16.261465],[108.029867,16.261452],[108.029748,16.261416],[108.029441,16.26113],[108.02908,16.261007],[108.028579,16.260755],[108.02789,16.260745],[108.027403,16.260287],[108.026859,16.260111],[108.026808,16.260001],[108.026835,16.259641],[108.026783,16.25957],[108.026672,16.259623],[108.026496,16.259913],[108.026307,16.260011],[108.026215,16.260008],[108.025827,16.259562],[108.025803,16.259395],[108.02457,16.258965],[108.023978,16.258661],[108.023816,16.258524],[108.023445,16.258063],[108.022923,16.257579],[108.022672,16.257258],[108.022634,16.257083],[108.022871,16.256659],[108.022853,16.256564],[108.022731,16.256301],[108.022349,16.255997],[108.022097,16.255925],[108.021891,16.255927],[108.020202,16.256115],[108.019941,16.256054],[108.019353,16.255453],[108.019149,16.255051],[108.018869,16.254942],[108.018417,16.254468],[108.018085,16.254392],[108.017634,16.254213],[108.016904,16.253513],[108.01681,16.253278],[108.016769,16.252369],[108.016552,16.251661],[108.016561,16.25111],[108.016469,16.250657],[108.016124,16.250342],[108.015326,16.249945],[108.015304,16.249903],[108.015434,16.249441],[108.014348,16.248802],[108.014015,16.247788],[108.013158,16.247372],[108.01289,16.247121],[108.01279,16.246959],[108.012549,16.245765],[108.012541,16.245627],[108.01262,16.245436],[108.012297,16.2452],[108.012273,16.245133],[108.012377,16.244591],[108.012189,16.243543],[108.012243,16.243043],[108.012478,16.242528],[108.01281,16.242091],[108.012768,16.240548],[108.012857,16.239805],[108.012853,16.23886],[108.012673,16.238557],[108.013108,16.237591],[108.013096,16.236752],[108.01321,16.236296],[108.013191,16.23613],[108.013082,16.235876],[108.012592,16.235132],[108.012401,16.234642],[108.012403,16.23407],[108.012649,16.233179],[108.012545,16.232896],[108.012231,16.232432],[108.012428,16.231877],[108.012363,16.231715],[108.011612,16.230596],[108.011263,16.230252],[108.010094,16.228777],[108.009808,16.22858],[108.009317,16.228398],[108.009403,16.227883],[108.009252,16.227178],[108.009347,16.226852],[108.009326,16.226514],[108.009363,16.226305],[108.009254,16.226063],[108.009252,16.225858],[108.009645,16.224847],[108.00967,16.22448],[108.009601,16.223993],[108.009824,16.222334],[108.009696,16.221844],[108.009745,16.221237],[108.009589,16.220711],[108.009526,16.220073],[108.009198,16.219891],[108.008859,16.219605],[108.00877,16.219399],[108.008759,16.219201],[108.008898,16.218443],[108.008847,16.217814],[108.009117,16.216495],[108.009147,16.21611],[108.009591,16.215022],[108.009712,16.214602],[108.009628,16.214274],[108.009716,16.213869],[108.009728,16.213397],[108.009421,16.212963],[108.009344,16.212777],[108.009351,16.212305],[108.009121,16.212058],[108.008995,16.211739],[108.009012,16.21155],[108.008942,16.211132],[108.009,16.210669],[108.008893,16.210489],[108.008515,16.210175],[108.008593,16.209779],[108.008568,16.209718],[108.007591,16.208954],[108.007528,16.20885],[108.00752,16.208587],[108.007296,16.208293],[108.007261,16.207843],[108.006738,16.207275],[108.006391,16.20674],[108.005724,16.205964],[108.005627,16.205681],[108.005577,16.20529],[108.005833,16.205146],[108.00602,16.204734],[108.006167,16.204563],[108.006716,16.204157],[108.006983,16.203845],[108.007744,16.202468],[108.008317,16.201923],[108.008412,16.201779],[108.008471,16.201197],[108.008731,16.200664],[108.009376,16.199843],[108.009623,16.199406],[108.009832,16.199176],[108.010027,16.198762],[108.010583,16.198077],[108.010918,16.19775],[108.011565,16.197353],[108.011738,16.19709],[108.011818,16.196711],[108.011902,16.196604],[108.01216,16.196463],[108.012683,16.196362],[108.012994,16.196121],[108.013472,16.195538],[108.013957,16.195122],[108.014176,16.194779],[108.014373,16.194599],[108.01525,16.193973],[108.015664,16.193871],[108.015918,16.19383],[108.016033,16.193856],[108.017539,16.194538],[108.018117,16.194593],[108.018444,16.194469],[108.018873,16.194421],[108.01929,16.194437],[108.019785,16.194341],[108.020791,16.193772],[108.021558,16.193963],[108.021709,16.193931],[108.022248,16.193599],[108.022449,16.19356],[108.023029,16.193593],[108.023691,16.193456],[108.024066,16.193213],[108.024837,16.192911],[108.025083,16.192909],[108.02531,16.192993],[108.02555,16.193256],[108.025606,16.193409],[108.025728,16.193449],[108.026122,16.193364],[108.026666,16.193075],[108.02694,16.193005],[108.027422,16.193036],[108.027948,16.193296],[108.028265,16.193267],[108.028651,16.193076],[108.029067,16.192781],[108.029571,16.192554],[108.030252,16.192119],[108.030659,16.192022],[108.030858,16.191831],[108.031822,16.19118],[108.033188,16.190716],[108.033494,16.190683],[108.0336,16.190713],[108.033887,16.191122],[108.034076,16.191256],[108.034343,16.191353],[108.035107,16.191283],[108.035476,16.191324],[108.036275,16.191524],[108.036715,16.191516],[108.037437,16.190973],[108.038205,16.190525],[108.038332,16.190403],[108.038426,16.190216],[108.038446,16.190044],[108.039217,16.19017],[108.039605,16.190114],[108.041639,16.188581],[108.041995,16.188594],[108.042155,16.188536],[108.042378,16.188343],[108.042791,16.187787],[108.042976,16.187651],[108.043915,16.187273],[108.044531,16.187275],[108.045051,16.1869],[108.045387,16.186811],[108.046145,16.186386],[108.046379,16.186226],[108.046529,16.186022],[108.046768,16.18589],[108.04702,16.185675],[108.047691,16.185485],[108.04901,16.184707],[108.04914,16.184527],[108.049542,16.184232],[108.049826,16.183923],[108.05079,16.183489],[108.051177,16.183261],[108.051621,16.183099],[108.052422,16.183028],[108.05327,16.182318],[108.053932,16.181545],[108.054487,16.181177],[108.055333,16.180811],[108.055443,16.180585],[108.055926,16.180221],[108.05672,16.1799],[108.056923,16.179884],[108.057636,16.179446],[108.057982,16.179396],[108.058585,16.179194],[108.059561,16.179137],[108.06006,16.179231],[108.060463,16.179462],[108.060998,16.179825],[108.061518,16.18028],[108.061855,16.180714],[108.06221,16.181346],[108.062354,16.181906],[108.062977,16.182862],[108.064042,16.183782],[108.064226,16.18416],[108.065191,16.183816],[108.065603,16.183808],[108.066039,16.183731],[108.066805,16.183429],[108.067415,16.183397],[108.067614,16.183336],[108.06809,16.18312],[108.068585,16.183002],[108.069011,16.182715],[108.069279,16.182607],[108.069905,16.182401],[108.070245,16.18234],[108.070568,16.182183],[108.07073,16.18205],[108.071113,16.182312],[108.071463,16.182411],[108.072221,16.182352],[108.073026,16.182226],[108.073759,16.182198],[108.074272,16.182662],[108.074474,16.182746],[108.074686,16.183023],[108.075292,16.183377],[108.07542,16.183501],[108.075504,16.183514],[108.075955,16.183302],[108.076464,16.183228],[108.077409,16.182884],[108.07954,16.182626],[108.079725,16.182626],[108.079811,16.182674],[108.080103,16.182969],[108.080215,16.18319],[108.080546,16.183206],[108.080752,16.183097],[108.08106,16.182838],[108.081663,16.182747],[108.082015,16.182601],[108.082678,16.182427],[108.083206,16.182164],[108.083665,16.182015],[108.084346,16.181582],[108.084406,16.181579],[108.084596,16.181743],[108.084895,16.182162],[108.085204,16.182437],[108.08567,16.182575],[108.08625,16.182622],[108.086359,16.18258],[108.086997,16.18204],[108.087599,16.181786],[108.088179,16.18165],[108.089146,16.181741],[108.089412,16.181695],[108.089869,16.181187],[108.090435,16.18103],[108.091656,16.180274],[108.092111,16.180181],[108.09243,16.18017],[108.093159,16.180446],[108.093763,16.180822],[108.093885,16.181217],[108.093857,16.181522],[108.09392,16.182086],[108.093875,16.182278],[108.093716,16.182563],[108.094534,16.18339],[108.09482,16.183612],[108.095929,16.184179],[108.096345,16.184459],[108.09737,16.18541],[108.098859,16.18611],[108.099725,16.186463],[108.100158,16.186599],[108.1007,16.186695],[108.101446,16.186638],[108.102295,16.186111],[108.103482,16.185739],[108.103712,16.185768],[108.104431,16.186158],[108.104779,16.186269],[108.105065,16.186261],[108.105305,16.186176],[108.1058,16.185805],[108.106629,16.185305],[108.107131,16.185271],[108.107451,16.185118],[108.107783,16.185066],[108.108108,16.184762],[108.108295,16.184507],[108.108501,16.184351],[108.108957,16.184085],[108.109505,16.183868],[108.109638,16.183756],[108.110008,16.1832],[108.110383,16.182734],[108.110632,16.182502],[108.110873,16.182152],[108.111213,16.182151],[108.111528,16.182238],[108.112232,16.182547],[108.1124,16.182557],[108.112691,16.182475],[108.113102,16.182259],[108.113979,16.182165],[108.114236,16.182191],[108.1156,16.18282],[108.116127,16.18283],[108.117286,16.182279],[108.117866,16.181809],[108.11848,16.181468],[108.118847,16.181186],[108.119058,16.181148],[108.123176,16.182268],[108.12391,16.182564],[108.128122,16.184546],[108.13024,16.186807],[108.130912,16.187399],[108.131949,16.188181],[108.132433,16.188673],[108.132904,16.189018],[108.134031,16.190062],[108.135355,16.190612],[108.13584,16.190869],[108.136189,16.191199],[108.136272,16.191389],[108.136401,16.191497],[108.138189,16.19182],[108.139204,16.191868],[108.139708,16.191823],[108.141738,16.191287],[108.14355,16.190586],[108.144543,16.190326],[108.146505,16.190198],[108.147735,16.190044],[108.148364,16.189899],[108.149286,16.189646],[108.150468,16.18915],[108.153907,16.187182],[108.154236,16.187567],[108.154471,16.187652],[108.154453,16.188254],[108.154553,16.188488],[108.15479,16.188808],[108.154983,16.18885],[108.155412,16.189892],[108.155537,16.189916],[108.156066,16.190623],[108.156342,16.190708],[108.156959,16.190695],[108.157467,16.190557],[108.158095,16.190538],[108.15924,16.190378],[108.159557,16.190487],[108.159933,16.190535],[108.160095,16.1909],[108.160307,16.191076],[108.160697,16.191148],[108.161521,16.191132],[108.162096,16.191294],[108.162178,16.191342],[108.162505,16.191788],[108.162913,16.191985],[108.163062,16.192295],[108.163507,16.192757],[108.163598,16.192988],[108.163868,16.193208],[108.163895,16.19331],[108.163846,16.193563],[108.163916,16.19371],[108.164117,16.193866],[108.164476,16.194005],[108.16474,16.194065],[108.164951,16.194044],[108.165744,16.193393],[108.165836,16.193348],[108.16632,16.193324],[108.166634,16.19319],[108.166758,16.193273],[108.167493,16.193465],[108.167662,16.193595],[108.16793,16.193913],[108.168202,16.194042],[108.168393,16.19404],[108.168955,16.193517],[108.169112,16.193426],[108.169361,16.193374],[108.169437,16.193392],[108.169533,16.1935],[108.169628,16.193788],[108.169819,16.193843],[108.170478,16.193653],[108.17059,16.193659],[108.170565,16.193785],[108.170741,16.193841],[108.171164,16.193868],[108.171473,16.1938],[108.171803,16.193861],[108.172091,16.193852],[108.172644,16.193714],[108.172801,16.193558],[108.172909,16.193532],[108.17305,16.193576],[108.172875,16.193802],[108.172962,16.193874],[108.173045,16.193875],[108.173238,16.193776],[108.173361,16.193796],[108.173432,16.193869],[108.173425,16.194123],[108.173494,16.194218],[108.174501,16.194464],[108.174629,16.194593],[108.174633,16.194843],[108.174843,16.19474],[108.174968,16.194757],[108.174982,16.194989],[108.175041,16.195037],[108.175377,16.194942],[108.175449,16.194961],[108.175471,16.19546],[108.175601,16.195417],[108.175641,16.195482],[108.175388,16.195975],[108.175338,16.196173],[108.175373,16.196314],[108.175332,16.196537],[108.175368,16.19665],[108.175756,16.19688],[108.17564,16.197163],[108.175732,16.19757],[108.176733,16.198553],[108.176886,16.198776],[108.177627,16.199581],[108.178114,16.199934],[108.178764,16.200305],[108.179252,16.200475],[108.17958,16.200514],[108.179761,16.200428],[108.180093,16.200366],[108.18086,16.199764],[108.181124,16.199742],[108.18147,16.19981],[108.182008,16.199817],[108.182954,16.199592],[108.183425,16.199395],[108.18392,16.199306],[108.184406,16.199452],[108.184823,16.199463],[108.185041,16.199547],[108.185353,16.200001],[108.185344,16.200396],[108.185388,16.200513],[108.185504,16.200627],[108.185613,16.200416],[108.185932,16.200553],[108.185881,16.20066],[108.185705,16.200718],[108.185672,16.200866],[108.185864,16.201084],[108.186159,16.201182],[108.186912,16.201131],[108.187061,16.201091],[108.18754,16.200811],[108.188225,16.200751],[108.188528,16.200732],[108.189343,16.200833],[108.190565,16.200729],[108.1914,16.200824],[108.191551,16.200777],[108.191694,16.200663],[108.191876,16.200191],[108.192189,16.199899],[108.192924,16.199479],[108.193349,16.199413],[108.193548,16.199271],[108.193732,16.199394],[108.194019,16.199353],[108.194133,16.199465],[108.194429,16.199488],[108.19462,16.199606],[108.19463,16.199897],[108.194518,16.20009],[108.194631,16.200206],[108.194722,16.20023],[108.194791,16.200391],[108.19472,16.200829],[108.194615,16.201064],[108.19443,16.201319],[108.194144,16.20155],[108.193777,16.201789],[108.193358,16.201949],[108.193295,16.20205],[108.193349,16.202202],[108.193682,16.202467],[108.193714,16.202606],[108.193377,16.203318],[108.193421,16.203576],[108.193214,16.204024],[108.193132,16.204374],[108.193155,16.204433],[108.193285,16.204445],[108.193432,16.204735],[108.193791,16.204849],[108.194062,16.204848],[108.194162,16.205006],[108.194116,16.205281],[108.193887,16.205576],[108.193875,16.205646],[108.193966,16.205695],[108.193951,16.205741],[108.193696,16.205882],[108.193586,16.206102],[108.193691,16.20633],[108.193956,16.20664],[108.193923,16.20694],[108.194092,16.207541],[108.194514,16.208129],[108.194806,16.208445],[108.194833,16.208568],[108.194727,16.20866],[108.194725,16.208773],[108.19477,16.208833],[108.194918,16.208874],[108.194942,16.208962],[108.194752,16.20914],[108.194799,16.209255],[108.195006,16.209393],[108.195013,16.209445],[108.194725,16.209606],[108.194646,16.209727],[108.194752,16.209745],[108.194986,16.209671],[108.194942,16.209782],[108.194459,16.210275],[108.194301,16.210557],[108.194176,16.210675],[108.193794,16.210723],[108.19369,16.210678],[108.193509,16.210829],[108.193387,16.210869],[108.192991,16.210801],[108.192277,16.211032],[108.192154,16.211102],[108.192047,16.211375],[108.191917,16.211434],[108.191748,16.211394],[108.191329,16.211525],[108.190734,16.21157],[108.190095,16.21151],[108.189276,16.211822],[108.188953,16.212038],[108.18849,16.212516],[108.188135,16.212978],[108.187292,16.213367],[108.1867,16.213846],[108.186544,16.21414],[108.186506,16.214156],[108.18646,16.214076],[108.186389,16.214085],[108.186231,16.214291],[108.186016,16.21436],[108.185743,16.214532],[108.185564,16.214729],[108.184296,16.215174],[108.184165,16.215181],[108.184056,16.215124],[108.183912,16.215316],[108.183788,16.215263],[108.183582,16.215388],[108.183396,16.21533],[108.183258,16.215469],[108.18314,16.21551],[108.183011,16.215436],[108.182698,16.215574],[108.182572,16.215565],[108.18237,16.215297],[108.182263,16.215426],[108.182115,16.215406],[108.181895,16.215285],[108.18185,16.215187],[108.181885,16.214987],[108.181824,16.21479],[108.181965,16.21466],[108.182122,16.214129],[108.182209,16.213476],[108.182053,16.212953],[108.181625,16.212477],[108.181134,16.212411],[108.180693,16.212224],[108.179944,16.212392],[108.179675,16.212352],[108.179464,16.212243],[108.179319,16.212344],[108.179254,16.212336],[108.179046,16.212301],[108.17864,16.212049],[108.178417,16.212088],[108.178155,16.212026],[108.178048,16.211904],[108.177774,16.212016],[108.177566,16.212247],[108.177521,16.212039],[108.177427,16.211994],[108.177281,16.212034],[108.177154,16.211945],[108.177028,16.211974],[108.176947,16.212118],[108.176891,16.212125],[108.176783,16.211831],[108.176425,16.211667],[108.175874,16.211926],[108.175549,16.211969],[108.175229,16.212143],[108.174954,16.212121],[108.174872,16.212049],[108.174745,16.211687],[108.17437,16.211393],[108.174144,16.211344],[108.173848,16.211492],[108.173704,16.211512],[108.173657,16.211421],[108.173759,16.211282],[108.173637,16.211209],[108.173646,16.211152],[108.17384,16.211034],[108.173842,16.210991],[108.173484,16.210615],[108.172383,16.209983],[108.172003,16.209648],[108.171863,16.209498],[108.17183,16.209354],[108.171653,16.209211],[108.17106,16.208852],[108.17064,16.208727],[108.170467,16.208583],[108.170383,16.208587],[108.169567,16.208975],[108.169362,16.209014],[108.168981,16.208988],[108.168486,16.209175],[108.168281,16.209567],[108.168134,16.209698],[108.167924,16.209798],[108.167666,16.209839],[108.167358,16.209776],[108.166887,16.209866],[108.166739,16.210283],[108.16658,16.210406],[108.165927,16.210388],[108.165623,16.210556],[108.165482,16.210697],[108.165439,16.210984],[108.165253,16.211127],[108.164941,16.211215],[108.164867,16.211046],[108.164422,16.211105],[108.164275,16.211249],[108.164015,16.211773],[108.163281,16.212163],[108.16318,16.212197],[108.16303,16.212145],[108.162823,16.212167],[108.162194,16.212419],[108.161338,16.213019],[108.161174,16.213452],[108.160997,16.213761],[108.160934,16.213809],[108.160576,16.213857],[108.160449,16.213951],[108.160248,16.21447],[108.159817,16.21505],[108.159771,16.215321],[108.159383,16.21568],[108.159055,16.215781],[108.158778,16.215933],[108.158628,16.21593],[108.158479,16.215781],[108.158396,16.215873],[108.158348,16.215852],[108.158201,16.215662],[108.157701,16.215687],[108.157644,16.215643],[108.157642,16.215461],[108.157212,16.2154],[108.155629,16.215421],[108.155322,16.215516],[108.154658,16.216122],[108.154072,16.216803],[108.154056,16.216958],[108.154308,16.21694],[108.154303,16.217048],[108.153763,16.217501],[108.153595,16.217916],[108.153398,16.218131],[108.15239,16.218814],[108.151744,16.219183],[108.151201,16.219637],[108.150993,16.219628],[108.150769,16.219739],[108.150154,16.220198],[108.14954,16.220736],[108.148905,16.2211],[108.148693,16.221148],[108.147158,16.220988],[108.146689,16.22074],[108.146489,16.220622],[108.146283,16.2204],[108.146067,16.220313],[108.145632,16.21988],[108.14526,16.219664],[108.145097,16.21951],[108.144822,16.219095],[108.144496,16.218758],[108.14441,16.218553],[108.14423,16.217678],[108.1441,16.216043],[108.143991,16.21542],[108.143895,16.215245],[108.143749,16.215129],[108.14346,16.215087],[108.143427,16.214894],[108.143251,16.214582],[108.143216,16.21419],[108.143092,16.213973],[108.14293,16.213853],[108.142268,16.213647],[108.140544,16.213141],[108.139966,16.213016],[108.139849,16.21302],[108.13959,16.213416],[108.139326,16.213628],[108.139206,16.213699],[108.138971,16.213676],[108.138685,16.214018],[108.138622,16.214321],[108.138377,16.214536],[108.138189,16.21483],[108.137782,16.214803],[108.137338,16.214882],[108.137256,16.214847],[108.1374,16.214385],[108.137219,16.214492],[108.137028,16.214722],[108.136861,16.214668],[108.136782,16.214726],[108.136478,16.214703],[108.136321,16.214661],[108.13617,16.214514],[108.1361,16.214502],[108.13591,16.214607],[108.135653,16.214875],[108.135553,16.215101],[108.135611,16.21557],[108.13556,16.215678],[108.135431,16.215759],[108.135286,16.215977],[108.135274,16.216144],[108.135222,16.216207],[108.134861,16.216394],[108.134796,16.216638],[108.134762,16.216686],[108.134649,16.216689],[108.134578,16.217017],[108.134451,16.217147],[108.134482,16.21727],[108.134649,16.217437],[108.134692,16.217613],[108.134642,16.217683],[108.134396,16.217799],[108.134163,16.217818],[108.134078,16.217723],[108.134111,16.217407],[108.133762,16.21744],[108.133666,16.217376],[108.133435,16.217053],[108.133271,16.217076],[108.132759,16.21741],[108.132786,16.217131],[108.132748,16.21681],[108.132593,16.216689],[108.132374,16.216834],[108.132282,16.216581],[108.132167,16.216471],[108.132007,16.216498],[108.131791,16.216766],[108.131681,16.216763],[108.131641,16.216718],[108.131352,16.216798],[108.131236,16.21675],[108.131129,16.21651],[108.13123,16.216201],[108.131191,16.216118],[108.131056,16.21606],[108.131115,16.215893],[108.130992,16.215809],[108.130723,16.215744],[108.13023,16.215783],[108.128514,16.216365],[108.128187,16.21652],[108.127953,16.216532],[108.127605,16.216353],[108.127769,16.216085],[108.127503,16.216059],[108.127363,16.216105],[108.127192,16.215962],[108.127143,16.21583],[108.127046,16.215859],[108.126892,16.215809],[108.12659,16.215482],[108.12642,16.215475],[108.12547,16.216166],[108.125424,16.216376],[108.125347,16.216456],[108.124732,16.216677],[108.124519,16.21661],[108.124223,16.216452],[108.124014,16.216268],[108.123437,16.215125],[108.123021,16.214609],[108.122411,16.213967],[108.122196,16.213911],[108.122219,16.214102],[108.122144,16.214111],[108.122036,16.214019],[108.122064,16.21387],[108.12192,16.2137],[108.1214,16.21348],[108.12085,16.213107],[108.120597,16.212846],[108.120342,16.212709],[108.119182,16.212404],[108.118894,16.212413],[108.118488,16.212595],[108.117637,16.213143],[108.117316,16.213455],[108.116649,16.214434],[108.116389,16.214613],[108.116075,16.214719],[108.115784,16.21475],[108.11542,16.214696],[108.114982,16.214742],[108.114218,16.215168],[108.113449,16.216217],[108.113439,16.216661],[108.113378,16.216933],[108.113236,16.217179],[108.112935,16.217432],[108.112641,16.21757],[108.112309,16.217616],[108.111882,16.217561],[108.11151,16.217585],[108.110982,16.217703],[108.110969,16.217748],[108.111099,16.217962],[108.111006,16.217996],[108.110843,16.217861],[108.110789,16.218192],[108.110567,16.218438],[108.110523,16.218601],[108.110082,16.218951],[108.109999,16.21928],[108.109911,16.219341],[108.109828,16.219327],[108.109668,16.21917],[108.109235,16.219424],[108.109066,16.219442],[108.108671,16.219282],[108.108487,16.219296],[108.108424,16.219229],[108.10848,16.219074],[108.108456,16.218979],[108.108149,16.218609],[108.107897,16.218541],[108.107605,16.218565],[108.106803,16.218288],[108.106618,16.218332],[108.106402,16.218586],[108.106024,16.219498],[108.105832,16.219732],[108.105551,16.219923],[108.104608,16.220314],[108.104396,16.220267],[108.104016,16.220064],[108.103892,16.220084],[108.103514,16.220372],[108.103095,16.220829],[108.102265,16.221998],[108.102321,16.222044],[108.102482,16.22199],[108.102578,16.222016],[108.102639,16.222147],[108.102631,16.22232],[108.102435,16.22262],[108.102385,16.222828],[108.102286,16.222899],[108.102146,16.222844],[108.101925,16.222562],[108.101787,16.222486],[108.101442,16.222527],[108.10045,16.223351],[108.09988,16.223536],[108.09956,16.223532],[108.099435,16.22361],[108.099202,16.22399],[108.098994,16.224191],[108.098765,16.224331],[108.098187,16.224545],[108.097896,16.224863],[108.097581,16.224946],[108.097387,16.225223],[108.097249,16.225269],[108.096996,16.225244],[108.096149,16.225345],[108.096086,16.22545],[108.096077,16.225587],[108.096125,16.2257],[108.096103,16.226195],[108.095573,16.226408],[108.095572,16.226091],[108.095518,16.226145],[108.095527,16.226208],[108.095461,16.226212],[108.09546,16.226289],[108.095343,16.226303],[108.095241,16.226433],[108.095251,16.226508],[108.095124,16.226498],[108.095077,16.226558],[108.095002,16.226558],[108.095026,16.226615],[108.094951,16.226644],[108.09488,16.226759],[108.094876,16.226826],[108.094949,16.226871],[108.094925,16.227068],[108.094828,16.22717],[108.094776,16.227131],[108.094648,16.227211],[108.094569,16.227341],[108.094481,16.227292],[108.094364,16.227553],[108.094112,16.227693],[108.093953,16.227697],[108.093931,16.227801],[108.093833,16.227808],[108.093809,16.227908],[108.093662,16.22797],[108.093635,16.228115],[108.093768,16.2282],[108.093757,16.228245],[108.093661,16.228316],[108.093514,16.228281],[108.093432,16.228382],[108.093326,16.228413],[108.093325,16.228509],[108.093415,16.228597],[108.093167,16.228825],[108.092919,16.228849],[108.092745,16.228708],[108.092331,16.228564],[108.092267,16.228492],[108.092158,16.228144],[108.089943,16.228144],[108.089528,16.228807],[108.089403,16.229412],[108.089239,16.229745],[108.088885,16.230788],[108.088599,16.231252],[108.08829,16.231908],[108.087811,16.232557],[108.087024,16.233819],[108.086631,16.234263],[108.086068,16.235199],[108.085157,16.2365],[108.084576,16.237188],[108.084142,16.237949],[108.083661,16.238561],[108.083484,16.238929],[108.082408,16.240297],[108.082315,16.240566],[108.082024,16.240908],[108.081125,16.242251],[108.080391,16.24318],[108.079377,16.244803],[108.07901,16.245145],[108.07853,16.245949],[108.07788,16.246705],[108.077514,16.247343],[108.077031,16.247887],[108.076728,16.248462],[108.076422,16.2488],[108.075544,16.250187],[108.073124,16.253591],[108.072499,16.254563],[108.071571,16.255784],[108.070433,16.257574],[108.070019,16.258143],[108.06944,16.259119],[108.069209,16.259395],[108.06854,16.260417],[108.06765,16.261571]]]}},{"type":"Feature","properties":{"id":"khe-tre","objectid":132,"maxa":"20161","mahuyen":"483","ten":"Thị trấn Khe Tre"},"geometry":{"type":"Polygon","coordinates":[[[107.731566,16.177582],[107.731271,16.177969],[107.730526,16.178686],[107.730065,16.179042],[107.729825,16.17933],[107.729348,16.180239],[107.72888,16.180722],[107.72882,16.180854],[107.728585,16.182267],[107.727635,16.182169],[107.726298,16.182308],[107.725572,16.182311],[107.724959,16.182168],[107.724312,16.18188],[107.723604,16.181956],[107.722752,16.182233],[107.721644,16.182931],[107.721459,16.1827],[107.720582,16.183445],[107.719136,16.184511],[107.718827,16.18424],[107.718597,16.184271],[107.716672,16.185063],[107.716191,16.185083],[107.714228,16.185542],[107.713849,16.185202],[107.713648,16.185107],[107.713411,16.185066],[107.713302,16.184977],[107.713243,16.184738],[107.713295,16.184091],[107.713178,16.183619],[107.71296,16.183121],[107.712239,16.182217],[107.712236,16.181943],[107.712336,16.181496],[107.712029,16.180792],[107.711937,16.180667],[107.711454,16.180377],[107.710875,16.179805],[107.710043,16.179476],[107.709785,16.179296],[107.708276,16.17758],[107.708186,16.177278],[107.708281,16.176773],[107.708374,16.176679],[107.708619,16.176219],[107.709078,16.175654],[107.70926,16.174431],[107.709732,16.173471],[107.709951,16.173818],[107.710072,16.173906],[107.711401,16.173883],[107.711795,16.173312],[107.712051,16.172792],[107.712189,16.17217],[107.712174,16.172028],[107.712605,16.170757],[107.71259,16.170635],[107.712421,16.170322],[107.712389,16.170072],[107.712423,16.169741],[107.712931,16.16926],[107.713023,16.167605],[107.712948,16.167038],[107.713083,16.166691],[107.71326,16.166419],[107.713461,16.166187],[107.714764,16.165288],[107.715213,16.16506],[107.715578,16.164992],[107.71611,16.165125],[107.716191,16.165097],[107.716249,16.164416],[107.716184,16.164046],[107.716197,16.163781],[107.716304,16.163554],[107.716477,16.163425],[107.716565,16.163437],[107.71681,16.163626],[107.716833,16.163575],[107.716756,16.163308],[107.716838,16.163117],[107.716828,16.163034],[107.716555,16.16289],[107.71636,16.162585],[107.716379,16.162434],[107.71652,16.16213],[107.716489,16.161476],[107.717207,16.161546],[107.717639,16.161694],[107.718064,16.161955],[107.719507,16.163068],[107.719583,16.163221],[107.719577,16.163491],[107.719319,16.164923],[107.72229,16.164058],[107.723596,16.163886],[107.724595,16.1638],[107.725158,16.163803],[107.725188,16.164372],[107.726037,16.164287],[107.726491,16.164316],[107.726851,16.16413],[107.727162,16.164083],[107.727557,16.164122],[107.727966,16.16428],[107.728198,16.164438],[107.728762,16.164646],[107.729158,16.164959],[107.730037,16.165451],[107.730436,16.165728],[107.730628,16.165992],[107.730724,16.166446],[107.730767,16.166744],[107.730717,16.167101],[107.730759,16.167359],[107.730962,16.167733],[107.731179,16.167964],[107.731606,16.168259],[107.7318,16.168477],[107.731867,16.168648],[107.731824,16.169152],[107.731708,16.169651],[107.731747,16.170107],[107.731488,16.170416],[107.730705,16.171074],[107.730754,16.171302],[107.73137,16.171893],[107.731499,16.172073],[107.731495,16.172271],[107.731395,16.17239],[107.730626,16.172889],[107.730475,16.173116],[107.730444,16.173285],[107.730515,16.173845],[107.731014,16.174387],[107.730606,16.175166],[107.730604,16.176598],[107.730702,16.176693],[107.731077,16.17683],[107.73127,16.17706],[107.731715,16.177413],[107.731566,16.177582]]]}},{"type":"Feature","properties":{"id":"a-luoi","objectid":146,"maxa":null,"mahuyen":null,"ten":null},"geometry":{"type":"Polygon","coordinates":[[[107.247486,16.306976],[107.247153,16.307181],[107.246825,16.307313],[107.246371,16.307416],[107.245215,16.307515],[107.244639,16.307623],[107.244508,16.307755],[107.244382,16.307989],[107.244191,16.308165],[107.24299,16.308815],[107.242718,16.308864],[107.242425,16.30885],[107.241369,16.308319],[107.241233,16.30832],[107.241092,16.308373],[107.24051,16.308854],[107.239609,16.309443],[107.239268,16.309609],[107.238903,16.309688],[107.23861,16.309664],[107.237871,16.30943],[107.237635,16.309446],[107.237278,16.309572],[107.235955,16.310123],[107.235419,16.310453],[107.23503,16.310759],[107.234584,16.311333],[107.233489,16.312141],[107.23301,16.312685],[107.232764,16.312896],[107.231974,16.312893],[107.231808,16.31294],[107.231464,16.313229],[107.231135,16.313425],[107.230606,16.313961],[107.230305,16.31408],[107.230107,16.31407],[107.229764,16.313941],[107.22926,16.313648],[107.228527,16.31317],[107.22795,16.31269],[107.227161,16.31193],[107.226771,16.311412],[107.226169,16.310784],[107.225942,16.310451],[107.225863,16.310163],[107.226144,16.309675],[107.226426,16.309409],[107.22679,16.308931],[107.226948,16.308603],[107.22701,16.308335],[107.227048,16.306766],[107.227019,16.306547],[107.226832,16.306028],[107.226855,16.305864],[107.227312,16.304764],[107.227588,16.303878],[107.227661,16.303495],[107.227468,16.302828],[107.226883,16.301281],[107.226416,16.300691],[107.226193,16.300146],[107.225849,16.298634],[107.225246,16.296417],[107.225272,16.296245],[107.225619,16.29585],[107.225854,16.295475],[107.226119,16.294699],[107.22619,16.294147],[107.22618,16.293657],[107.225967,16.292641],[107.225772,16.292006],[107.225699,16.291188],[107.225439,16.290114],[107.225259,16.289804],[107.225287,16.288828],[107.22406,16.288836],[107.223801,16.288678],[107.222916,16.288618],[107.222554,16.28852],[107.222513,16.288015],[107.22235,16.287955],[107.222035,16.287932],[107.221853,16.28779],[107.221947,16.287519],[107.222065,16.287367],[107.222015,16.287296],[107.222041,16.28723],[107.221872,16.28711],[107.221708,16.287188],[107.221433,16.286895],[107.220153,16.285934],[107.21955,16.285313],[107.218555,16.284997],[107.218582,16.284757],[107.218489,16.284346],[107.218464,16.283368],[107.218425,16.283019],[107.218321,16.282667],[107.218089,16.282393],[107.217317,16.281858],[107.216902,16.281355],[107.216792,16.281098],[107.216753,16.280714],[107.216997,16.279141],[107.217052,16.278637],[107.217034,16.278253],[107.216816,16.277743],[107.216639,16.27756],[107.216525,16.27736],[107.216373,16.275619],[107.216131,16.274697],[107.216037,16.274582],[107.215603,16.274481],[107.214469,16.27483],[107.213811,16.27524],[107.213545,16.275259],[107.213082,16.275151],[107.21272,16.274947],[107.212431,16.274457],[107.211764,16.273977],[107.21141,16.273546],[107.21102,16.273192],[107.210903,16.272812],[107.210938,16.272562],[107.211013,16.272463],[107.211168,16.272345],[107.212071,16.272077],[107.212359,16.271918],[107.212751,16.271598],[107.21335,16.271004],[107.214235,16.269803],[107.21483,16.269332],[107.215569,16.268597],[107.215817,16.268447],[107.216416,16.268429],[107.216975,16.268194],[107.216936,16.26853],[107.216789,16.26873],[107.216751,16.268902],[107.216979,16.269261],[107.217393,16.269492],[107.217575,16.269679],[107.217632,16.269847],[107.217559,16.270121],[107.217599,16.270219],[107.217849,16.270323],[107.218327,16.27035],[107.218925,16.270624],[107.219366,16.27039],[107.219528,16.270382],[107.21971,16.269908],[107.21998,16.269701],[107.220206,16.269419],[107.220686,16.26897],[107.221258,16.268537],[107.221851,16.268995],[107.222101,16.268662],[107.222723,16.269058],[107.223148,16.26849],[107.223098,16.268448],[107.223401,16.267937],[107.224079,16.267],[107.224044,16.266962],[107.224152,16.266775],[107.224253,16.266837],[107.22456,16.266402],[107.224639,16.26645],[107.224893,16.266106],[107.224935,16.266135],[107.225059,16.266031],[107.224953,16.265986],[107.225098,16.265832],[107.225438,16.265072],[107.226255,16.265111],[107.226286,16.265026],[107.22642,16.265034],[107.226419,16.265123],[107.22749,16.265166],[107.227498,16.265114],[107.227844,16.265091],[107.227817,16.265066],[107.227977,16.264979],[107.228647,16.264986],[107.228634,16.264721],[107.228812,16.26397],[107.229437,16.263976],[107.229569,16.263832],[107.229866,16.263781],[107.230353,16.264061],[107.230557,16.264074],[107.230769,16.263849],[107.230514,16.263171],[107.230452,16.262839],[107.230565,16.26221],[107.231447,16.262747],[107.231674,16.262329],[107.232094,16.262305],[107.232377,16.262577],[107.232357,16.262617],[107.232548,16.262687],[107.232482,16.262747],[107.235066,16.26488],[107.235042,16.264964],[107.235168,16.265118],[107.235491,16.265087],[107.235668,16.265146],[107.236038,16.265435],[107.236152,16.265415],[107.236342,16.265223],[107.236493,16.265333],[107.236687,16.265224],[107.236992,16.265439],[107.237163,16.265268],[107.237375,16.265428],[107.237625,16.265765],[107.237723,16.266082],[107.237709,16.266278],[107.238072,16.266564],[107.238262,16.266794],[107.238312,16.267265],[107.238182,16.267717],[107.239181,16.268087],[107.239671,16.268469],[107.239888,16.268549],[107.240309,16.268602],[107.240434,16.268714],[107.240907,16.26946],[107.241837,16.269995],[107.242803,16.270258],[107.243719,16.270252],[107.244094,16.270301],[107.244251,16.270274],[107.244694,16.270001],[107.244939,16.269947],[107.245559,16.269978],[107.246087,16.270267],[107.246239,16.270406],[107.246503,16.27083],[107.247148,16.272528],[107.247227,16.27285],[107.247233,16.273252],[107.247182,16.273427],[107.246642,16.274232],[107.246092,16.274483],[107.246069,16.274604],[107.246168,16.275122],[107.246202,16.275623],[107.246197,16.276194],[107.246069,16.276966],[107.245901,16.277369],[107.245311,16.27806],[107.244957,16.279045],[107.244957,16.279219],[107.245014,16.279355],[107.245087,16.279404],[107.245673,16.279361],[107.245999,16.279401],[107.246804,16.279718],[107.247322,16.280141],[107.247395,16.280342],[107.247453,16.281126],[107.247419,16.281403],[107.24715,16.282377],[107.247156,16.282573],[107.247354,16.283138],[107.247326,16.2836],[107.247366,16.283818],[107.248495,16.286362],[107.24853,16.287195],[107.248998,16.287917],[107.249415,16.288836],[107.249833,16.289516],[107.250537,16.290249],[107.25092,16.290515],[107.251247,16.290662],[107.253414,16.291225],[107.253769,16.29142],[107.254023,16.291686],[107.254208,16.292033],[107.254024,16.29222],[107.253793,16.292777],[107.253486,16.293728],[107.253462,16.294309],[107.253488,16.294836],[107.253635,16.295489],[107.254038,16.298909],[107.254014,16.29986],[107.253893,16.300182],[107.253541,16.300783],[107.252064,16.30276],[107.251827,16.302923],[107.250742,16.303347],[107.249632,16.303719],[107.248651,16.303931],[107.248416,16.304443],[107.247768,16.306584],[107.247486,16.306976]]]}},{"type":"Feature","properties":{"id":"vinh-hien","objectid":120,"maxa":"20125","mahuyen":"482","ten":"Xã Vinh Hiền"},"geometry":{"type":"Polygon","coordinates":[[[107.943347,16.34379],[107.943315,16.343728],[107.943012,16.343625],[107.942854,16.34352],[107.94225,16.343351],[107.941825,16.34332],[107.941817,16.343483],[107.941773,16.343509],[107.941603,16.343316],[107.941514,16.343278],[107.941045,16.343395],[107.940344,16.34369],[107.940209,16.343679],[107.940012,16.343741],[107.939756,16.34397],[107.939716,16.344152],[107.939563,16.344446],[107.93934,16.34456],[107.938879,16.344562],[107.937877,16.345038],[107.937291,16.345467],[107.936804,16.34593],[107.935408,16.346959],[107.934745,16.347355],[107.933815,16.34804],[107.932887,16.348559],[107.932572,16.348837],[107.931414,16.349564],[107.930647,16.350135],[107.929505,16.350829],[107.929166,16.351137],[107.927996,16.351943],[107.927397,16.352529],[107.926979,16.352797],[107.926207,16.353495],[107.924677,16.354517],[107.923614,16.355098],[107.923314,16.355106],[107.922871,16.355042],[107.922716,16.355072],[107.922316,16.355267],[107.922087,16.355246],[107.921791,16.355343],[107.921396,16.355583],[107.920754,16.355568],[107.920022,16.356172],[107.920139,16.356475],[107.920069,16.356633],[107.918761,16.357444],[107.918361,16.357839],[107.918184,16.357955],[107.917938,16.358021],[107.91749,16.358042],[107.917111,16.358358],[107.915953,16.358953],[107.915238,16.359472],[107.914394,16.359953],[107.913794,16.36051],[107.913694,16.36098],[107.913628,16.361062],[107.912543,16.36195],[107.910938,16.363161],[107.909544,16.364042],[107.908392,16.364926],[107.905409,16.367556],[107.905256,16.367732],[107.905162,16.368015],[107.90508,16.368021],[107.904869,16.367851],[107.904283,16.367921],[107.904193,16.368042],[107.904054,16.368034],[107.904008,16.367992],[107.904024,16.367905],[107.903913,16.36781],[107.903959,16.367755],[107.903928,16.367694],[107.903444,16.367303],[107.903326,16.367118],[107.90323,16.367154],[107.903082,16.367039],[107.90304,16.366838],[107.903122,16.366749],[107.90308,16.366618],[107.902963,16.366507],[107.902857,16.36645],[107.902183,16.366484],[107.901654,16.366784],[107.90142,16.366801],[107.901115,16.366914],[107.900475,16.367361],[107.899096,16.368188],[107.898491,16.368585],[107.897716,16.369202],[107.896953,16.36965],[107.895801,16.370607],[107.894863,16.369452],[107.89539,16.368624],[107.895624,16.367483],[107.89567,16.366662],[107.895467,16.365363],[107.895173,16.364657],[107.89362,16.363272],[107.892441,16.361588],[107.892036,16.360844],[107.891601,16.359874],[107.891357,16.358191],[107.891323,16.35742],[107.891399,16.356751],[107.891729,16.35594],[107.892164,16.354486],[107.892596,16.353701],[107.893417,16.352481],[107.893661,16.351751],[107.893785,16.351167],[107.893932,16.349543],[107.893863,16.348486],[107.8938,16.348255],[107.894092,16.348227],[107.894139,16.347618],[107.893884,16.34766],[107.893859,16.347764],[107.893536,16.347823],[107.893593,16.34817],[107.893477,16.348168],[107.893336,16.347907],[107.89295,16.348079],[107.892978,16.348381],[107.892817,16.348788],[107.892716,16.349899],[107.892576,16.350774],[107.892316,16.351653],[107.892249,16.352147],[107.891639,16.353142],[107.891493,16.353617],[107.891493,16.354744],[107.891068,16.354799],[107.890796,16.354774],[107.890512,16.354689],[107.890312,16.354572],[107.889937,16.354698],[107.889768,16.354642],[107.889689,16.354687],[107.889667,16.354964],[107.889607,16.355041],[107.888801,16.353484],[107.88883,16.352833],[107.888359,16.352489],[107.888174,16.352123],[107.887868,16.351719],[107.88774,16.35146],[107.886611,16.350283],[107.886468,16.350152],[107.885173,16.349456],[107.882462,16.347893],[107.883583,16.345604],[107.884199,16.344553],[107.883202,16.34273],[107.876825,16.33617],[107.861762,16.322727],[107.876825,16.315064],[107.889762,16.311765],[107.908075,16.327707],[107.909112,16.328383],[107.909775,16.32891],[107.910992,16.330047],[107.911938,16.331428],[107.912357,16.332727],[107.912671,16.335162],[107.91267,16.335811],[107.912306,16.341411],[107.912243,16.341655],[107.912022,16.34201],[107.91133,16.342729],[107.911975,16.343976],[107.913046,16.346603],[107.91337,16.347541],[107.914432,16.349371],[107.9147,16.349752],[107.916105,16.351259],[107.917227,16.35229],[107.917918,16.352788],[107.919209,16.353208],[107.919776,16.353339],[107.92014,16.35334],[107.920924,16.353248],[107.921479,16.353397],[107.921862,16.353365],[107.922038,16.35343],[107.922476,16.353408],[107.923193,16.353259],[107.923712,16.353021],[107.924294,16.352712],[107.925651,16.351874],[107.926189,16.351494],[107.926969,16.350752],[107.927491,16.350187],[107.927911,16.349568],[107.928857,16.347721],[107.929214,16.347234],[107.92991,16.346491],[107.930716,16.345827],[107.931654,16.345173],[107.933759,16.344086],[107.934973,16.3436],[107.93583,16.343113],[107.936738,16.342523],[107.938144,16.341925],[107.939325,16.341536],[107.940636,16.340985],[107.941162,16.340887],[107.942114,16.341006],[107.943031,16.341272],[107.944232,16.341805],[107.944515,16.342005],[107.944606,16.342327],[107.944586,16.342416],[107.943775,16.343617],[107.943386,16.344008],[107.943347,16.34379]]]}},{"type":"Feature","properties":{"id":"vinh-thanh","objectid":70,"maxa":"19945","mahuyen":"478","ten":"Xã Vinh Thanh"},"geometry":{"type":"Polygon","coordinates":[[[107.814865,16.441077],[107.814096,16.441712],[107.813568,16.442262],[107.813247,16.442506],[107.813146,16.442521],[107.812767,16.442826],[107.812714,16.442938],[107.812593,16.442999],[107.812255,16.443416],[107.811981,16.443594],[107.811664,16.44396],[107.811048,16.444453],[107.811032,16.44453],[107.810926,16.444581],[107.810868,16.444672],[107.810657,16.444774],[107.810267,16.445237],[107.809487,16.445882],[107.809297,16.446101],[107.809149,16.446483],[107.808801,16.44689],[107.807878,16.447576],[107.807177,16.448252],[107.805552,16.449544],[107.80512,16.450012],[107.803891,16.451115],[107.803016,16.452036],[107.802573,16.452259],[107.802335,16.452513],[107.800479,16.453999],[107.800363,16.454145],[107.799984,16.454379],[107.798677,16.455558],[107.796351,16.453752],[107.796036,16.453564],[107.795507,16.453343],[107.793547,16.452162],[107.792539,16.45152],[107.791856,16.451008],[107.79122,16.450852],[107.790184,16.450352],[107.787816,16.448977],[107.786818,16.448292],[107.78673,16.448305],[107.786651,16.448083],[107.786387,16.447864],[107.786125,16.447815],[107.785971,16.447701],[107.785878,16.447628],[107.785801,16.447452],[107.785295,16.447063],[107.781847,16.444784],[107.780323,16.44388],[107.779812,16.443524],[107.779632,16.443487],[107.779246,16.443246],[107.778774,16.442772],[107.778169,16.442458],[107.777296,16.441748],[107.776986,16.441416],[107.776537,16.440643],[107.776138,16.440111],[107.776127,16.439135],[107.776008,16.438779],[107.77568,16.438334],[107.775305,16.438007],[107.776076,16.436358],[107.776248,16.435936],[107.776223,16.435849],[107.773246,16.435156],[107.772631,16.43658],[107.772529,16.436664],[107.768232,16.434275],[107.769358,16.432914],[107.772421,16.429634],[107.77305,16.429089],[107.774146,16.428305],[107.77462,16.428035],[107.774966,16.427897],[107.775658,16.427734],[107.776862,16.427571],[107.777754,16.427614],[107.778673,16.427509],[107.779381,16.427197],[107.779977,16.4268],[107.780705,16.425957],[107.781607,16.424171],[107.782541,16.422766],[107.783076,16.422047],[107.784275,16.420937],[107.785496,16.420002],[107.787938,16.417721],[107.790434,16.419347],[107.792126,16.420382],[107.792058,16.420672],[107.793499,16.421828],[107.793468,16.421889],[107.794054,16.422325],[107.794253,16.422566],[107.795063,16.42332],[107.795528,16.42357],[107.79589,16.423223],[107.796116,16.42339],[107.796275,16.42326],[107.797434,16.424299],[107.79841,16.425053],[107.798397,16.425167],[107.79844,16.425222],[107.798911,16.425525],[107.798979,16.425519],[107.800323,16.426498],[107.80106,16.427184],[107.802725,16.428526],[107.804059,16.429786],[107.804763,16.430115],[107.804781,16.430199],[107.804608,16.4305],[107.805285,16.431353],[107.805315,16.43145],[107.806666,16.432149],[107.807176,16.432547],[107.807392,16.432922],[107.808327,16.433234],[107.809189,16.433911],[107.809338,16.434293],[107.809655,16.434832],[107.810075,16.435276],[107.810608,16.43601],[107.810829,16.43648],[107.811776,16.43773],[107.812637,16.438705],[107.81313,16.43911],[107.814865,16.441077]]]}}]}